{"type":"FeatureCollection","features":[{"type":"Feature","geometry":{"type":"Polygon","coordinates":[[[100.59403,7.18263],[100.59973,7.1817],[100.59985,7.17929],[100.60315,7.17635],[100.60572,7.17023],[100.61064,7.17359],[100.61002,7.17635],[100.61388,7.17593],[100.62019,7.17875],[100.61796,7.17986],[100.61932,7.18184],[100.61404,7.18637],[100.5968,7.21505],[100.59106,7.21507],[100.58853,7.217],[100.58173,7.23202],[100.58323,7.23356],[100.57685,7.22726],[100.57519,7.22354],[100.58504,7.19663],[100.58175,7.18235],[100.58595,7.18112],[100.59403,7.18263]]]},"properties":{"name":"เทศบาลนครสงขลา","name_en":"Songkhla City Municipality","admin_level":"7"}},{"type":"Feature","geometry":{"type":"Polygon","coordinates":[[[100.17801,6.68266],[100.17094,6.68165],[100.16846,6.68567],[100.16344,6.68435],[100.1568,6.68798],[100.14794,6.68753],[100.13738,6.68946],[100.13283,6.6922],[100.12549,6.69126],[100.12434,6.68852],[100.12274,6.69213],[100.12438,6.69506],[100.12214,6.69753],[100.11886,6.72218],[100.10997,6.7282],[100.10158,6.73009],[100.10004,6.72888],[100.10006,6.72282],[100.09796,6.72146],[100.07846,6.72361],[100.07854,6.72961],[100.08412,6.73985],[100.07766,6.74159],[100.07485,6.74563],[100.06938,6.74323],[100.07031,6.74508],[100.06869,6.75023],[100.06119,6.75329],[100.05384,6.75385],[100.0573,6.75571],[100.05732,6.75779],[100.04832,6.77545],[100.04381,6.79046],[100.03984,6.79542],[100.0364,6.79711],[100.03114,6.79274],[100.02807,6.79232],[100.02741,6.79482],[100.02358,6.79713],[100.02447,6.79959],[100.01123,6.80263],[100.00692,6.80533],[100.00801,6.80635],[100.00516,6.809],[100.00407,6.81389],[100.00094,6.8159],[99.99781,6.82103],[99.99941,6.82347],[100.00359,6.82225],[100.00756,6.82499],[100.00815,6.82368],[100.01165,6.8258],[100.01292,6.82419],[100.01608,6.82527],[100.02321,6.83158],[100.02118,6.83354],[100.02331,6.83386],[100.02253,6.8353],[100.02495,6.83921],[100.03345,6.84106],[100.04019,6.8368],[100.04113,6.83914],[100.04255,6.8385],[100.04199,6.84198],[100.04402,6.84342],[100.04771,6.8431],[100.05206,6.83928],[100.05548,6.84174],[100.0581,6.84084],[100.05813,6.84258],[100.06125,6.84168],[100.06033,6.84306],[100.07216,6.83726],[100.07489,6.83809],[100.07509,6.8399],[100.07998,6.84115],[100.08303,6.83138],[100.08222,6.82855],[100.08522,6.82768],[100.08641,6.82163],[100.089,6.82146],[100.09137,6.81829],[100.12091,6.82123],[100.12959,6.81954],[100.12812,6.81707],[100.13202,6.81455],[100.13597,6.81774],[100.14132,6.81656],[100.1445,6.81866],[100.15057,6.81905],[100.15191,6.81721],[100.15457,6.81821],[100.1567,6.81687],[100.15806,6.81883],[100.16144,6.81644],[100.16538,6.81651],[100.17253,6.81126],[100.17819,6.81281],[100.18373,6.80878],[100.19162,6.80894],[100.19141,6.79979],[100.19566,6.79556],[100.19302,6.7911],[100.19309,6.78785],[100.19895,6.78339],[100.19951,6.77616],[100.21276,6.76875],[100.21576,6.75674],[100.21354,6.75296],[100.20735,6.74862],[100.20594,6.73789],[100.20681,6.73006],[100.20506,6.72608],[100.19894,6.72169],[100.19653,6.72238],[100.19584,6.72068],[100.18584,6.71678],[100.18622,6.71328],[100.17873,6.69985],[100.17863,6.69651],[100.17157,6.69376],[100.17521,6.68288],[100.17689,6.6828],[100.17801,6.68266]]]},"properties":{"name":"อำเภอควนโดน","name_en":"Khuan Don District","admin_level":"6"}},{"type":"Feature","geometry":{"type":"Polygon","coordinates":[[[99.99778,6.82061],[99.99941,6.82347],[100.00359,6.82225],[100.00756,6.82499],[100.00815,6.82368],[100.01165,6.8258],[100.01292,6.82419],[100.01608,6.82527],[100.02321,6.83158],[100.02118,6.83354],[100.02331,6.83386],[100.02253,6.8353],[100.02495,6.83921],[100.03345,6.84106],[100.04019,6.8368],[100.04113,6.83914],[100.04255,6.8385],[100.04199,6.84198],[100.04402,6.84342],[100.04771,6.8431],[100.05206,6.83928],[100.05548,6.84174],[100.0581,6.84084],[100.05813,6.84258],[100.06125,6.84168],[100.06033,6.84306],[100.07216,6.83726],[100.07489,6.83809],[100.07509,6.8399],[100.08074,6.84099],[100.08039,6.83728],[100.08304,6.8313],[100.08222,6.82855],[100.08522,6.82768],[100.08641,6.82163],[100.089,6.82146],[100.09137,6.81829],[100.12091,6.82123],[100.12959,6.81954],[100.12812,6.81707],[100.13202,6.81455],[100.13597,6.81774],[100.14132,6.81656],[100.1445,6.81866],[100.15057,6.81905],[100.15191,6.81721],[100.15457,6.81821],[100.1567,6.81687],[100.15806,6.81883],[100.16144,6.81644],[100.16538,6.81651],[100.17253,6.81126],[100.17874,6.81274],[100.18346,6.80888],[100.1897,6.80867],[100.19162,6.80894],[100.19619,6.8144],[100.19524,6.82709],[100.199,6.8362],[100.20327,6.84084],[100.2108,6.84387],[100.21097,6.85719],[100.21482,6.86165],[100.21767,6.8686],[100.22062,6.87078],[100.2186,6.87192],[100.2187,6.87954],[100.21293,6.88327],[100.21155,6.88771],[100.20879,6.88844],[100.20716,6.89576],[100.20087,6.8993],[100.19876,6.90738],[100.18157,6.91333],[100.1776,6.91176],[100.17362,6.91341],[100.1678,6.91177],[100.16596,6.91437],[100.16348,6.9138],[100.15733,6.91942],[100.14617,6.92518],[100.14161,6.92506],[100.13781,6.92208],[100.12175,6.92386],[100.11994,6.93604],[100.11232,6.94314],[100.10785,6.94521],[100.10582,6.94875],[100.10176,6.9487],[100.09953,6.95702],[100.09482,6.96509],[100.07903,6.96325],[100.08102,6.98008],[100.07978,6.98861],[100.08329,6.99481],[100.08301,6.99803],[100.07784,7.00534],[100.06625,7.01278],[100.06321,7.01841],[100.06679,7.02531],[100.06565,7.03134],[100.06771,7.03325],[100.07054,7.03179],[100.07504,7.03326],[100.07817,7.03723],[100.07892,7.04242],[100.07726,7.04425],[100.07125,7.04384],[100.07079,7.04582],[100.07362,7.0474],[100.07387,7.04992],[100.06369,7.05713],[100.06373,7.06775],[100.06047,7.07139],[100.06128,7.07554],[100.06303,7.07623],[100.05941,7.08575],[100.06007,7.0891],[100.0575,7.09033],[100.05456,7.09514],[100.05722,7.10758],[100.05226,7.11002],[100.04911,7.10759],[100.03943,7.10896],[100.03765,7.10803],[100.03694,7.10141],[100.03424,7.10074],[100.03089,7.09292],[100.02823,7.09033],[100.02558,7.07901],[100.01262,7.06743],[100.00484,7.06581],[100.00248,7.06305],[100.0,7.06345],[99.99708,7.06727],[99.99217,7.06693],[99.99419,7.06287],[99.99235,7.05745],[99.98929,7.05482],[99.98344,7.05411],[99.97214,7.04135],[99.97951,7.03492],[99.98121,7.02906],[99.98511,7.02446],[99.98425,7.02076],[99.98666,7.01399],[99.98462,7.01086],[99.98596,7.00784],[99.9841,7.00404],[99.98703,6.99869],[99.98224,6.99315],[99.98159,6.98721],[99.98576,6.97622],[99.99459,6.97032],[100.00531,6.96791],[100.00566,6.96093],[100.00232,6.95518],[100.00126,6.94857],[99.99751,6.94706],[99.98156,6.94628],[99.97193,6.93952],[99.96713,6.94006],[99.96681,6.93846],[99.95612,6.93799],[99.95619,6.9366],[99.94912,6.9352],[99.94144,6.93012],[99.93504,6.92809],[99.93422,6.93042],[99.93366,6.92789],[99.93054,6.9292],[99.9267,6.9259],[99.92601,6.92744],[99.92447,6.92618],[99.92483,6.92759],[99.92154,6.928],[99.92093,6.92344],[99.9168,6.9218],[99.917,6.92007],[99.91588,6.92272],[99.91065,6.92295],[99.90928,6.92068],[99.90739,6.92166],[99.9078,6.92289],[99.90371,6.92296],[99.90254,6.91933],[99.90067,6.92075],[99.90046,6.91738],[99.89736,6.91733],[99.89817,6.91373],[99.89563,6.91453],[99.89584,6.91338],[99.89012,6.91344],[99.88837,6.9115],[99.88352,6.91122],[99.88337,6.90824],[99.88235,6.9094],[99.88175,6.90815],[99.87651,6.90892],[99.87508,6.91211],[99.87227,6.91007],[99.86851,6.91146],[99.86766,6.90891],[99.86516,6.91172],[99.86611,6.91033],[99.86435,6.90553],[99.86722,6.9045],[99.86751,6.90203],[99.86537,6.89862],[99.86684,6.89585],[99.86268,6.89173],[99.86389,6.88811],[99.86279,6.88501],[99.87154,6.88042],[99.87046,6.87281],[99.88315,6.86942],[99.8858,6.87076],[99.88928,6.87733],[99.90837,6.8758],[99.9112,6.8743],[99.92555,6.87481],[99.93023,6.87536],[99.932,6.87849],[99.9401,6.88139],[99.95412,6.88071],[99.95368,6.86614],[99.96473,6.86523],[99.96436,6.86303],[99.96827,6.86267],[99.97089,6.86059],[99.96924,6.85577],[99.96092,6.8476],[99.96183,6.83984],[99.96574,6.83516],[99.98337,6.83213],[99.98305,6.82873],[99.98948,6.82746],[99.98812,6.82587],[99.98852,6.82102],[99.99034,6.81977],[99.99776,6.82057],[99.99778,6.82061]]]},"properties":{"name":"อำเภอควนกาหลง","name_en":"Khuan Kalong District","admin_level":"6"}},{"type":"Feature","geometry":{"type":"Polygon","coordinates":[[[99.83424,6.6537],[99.83243,6.65274],[99.83331,6.65127],[99.83424,6.6537],[99.91446,6.69491],[99.91297,6.70201],[99.90825,6.703],[99.90658,6.70511],[99.90761,6.70806],[99.91248,6.71084],[99.91281,6.71243],[99.90429,6.7057],[99.908,6.69596],[99.90685,6.69372],[99.90802,6.68921],[99.91009,6.68848],[99.91446,6.69491],[99.90684,6.68455],[99.90878,6.68777],[99.90629,6.68805],[99.90471,6.68626],[99.90684,6.68455],[99.91471,6.68825],[99.91432,6.68993],[99.91411,6.68794],[99.87658,6.65801],[99.87718,6.65569],[99.8791,6.65557],[99.87684,6.65756],[99.84438,6.65143],[99.84655,6.65217],[99.85331,6.66163],[99.86273,6.66482],[99.86584,6.6675],[99.86413,6.67053],[99.86161,6.671],[99.85605,6.66973],[99.85273,6.66696],[99.84762,6.66706],[99.84449,6.6591],[99.84438,6.65143],[99.83275,6.67537],[99.84474,6.67138],[99.85757,6.69145],[99.85548,6.69035],[99.8603,6.69137],[99.8614,6.6957],[99.85856,6.69636],[99.8547,6.69412],[99.85667,6.6946],[99.85723,6.69204],[99.85475,6.69109],[99.85757,6.69145],[99.86246,6.67528],[99.86531,6.67987],[99.86701,6.67975],[99.86714,6.68568],[99.8645,6.69101],[99.86181,6.68205],[99.85846,6.67849],[99.86246,6.67528],[99.79917,6.70601],[99.79901,6.7045],[99.80037,6.70536],[99.79458,6.71065],[99.7942,6.70959],[99.79505,6.71097],[99.84044,6.69493],[99.84528,6.70165],[99.84176,6.70216],[99.84118,6.69997],[99.83854,6.70024],[99.83652,6.69723],[99.83766,6.69541],[99.80613,6.71495],[99.8098,6.71273],[99.81674,6.71656],[99.82448,6.71817],[99.82415,6.72006],[99.81533,6.71947],[99.8123,6.71601],[99.80607,6.7157],[99.85078,6.73304],[99.84347,6.73684],[99.84214,6.73524],[99.84537,6.73176],[99.84414,6.73055],[99.8466,6.73171],[99.84371,6.71851],[99.84048,6.71595],[99.83624,6.72098],[99.83461,6.72049],[99.83925,6.7157],[99.84255,6.71452],[99.84164,6.70818],[99.84639,6.70439],[99.85204,6.70532],[99.85379,6.70745],[99.86397,6.70403],[99.8669,6.70817],[99.8626,6.71632],[99.86106,6.72953],[99.85078,6.73304],[99.87137,6.70306],[99.87216,6.7052],[99.8708,6.70344],[99.88691,6.70894],[99.87433,6.70542],[99.87283,6.70293],[99.87742,6.6998],[99.888,6.70702],[99.88791,6.70862],[99.8734,6.71158],[99.879,6.71116],[99.88699,6.71303],[99.87292,6.71751],[99.8734,6.71158],[99.8922,6.71635],[99.88419,6.71693],[99.88287,6.71646],[99.88401,6.71507],[99.88934,6.71456],[99.89299,6.71564],[99.8922,6.71635],[99.90839,6.71908],[99.9147,6.71441],[99.91327,6.71028],[99.90758,6.70673],[99.90772,6.70432],[99.91503,6.70349],[99.91611,6.70021],[99.92013,6.69642],[99.9237,6.68821],[99.92241,6.68087],[99.90839,6.71908],[99.92461,6.74116],[99.93536,6.74377],[99.94478,6.74336],[99.95328,6.74948],[99.96371,6.75283],[99.97853,6.75336],[99.98232,6.75598],[99.9856,6.75506],[99.98657,6.75762],[99.98274,6.75855],[99.98589,6.7714],[99.99173,6.77592],[99.99767,6.7775],[100.00063,6.78238],[100.00427,6.78159],[100.00885,6.78473],[100.0092,6.79483],[100.01244,6.79872],[100.0043,6.8012],[100.00692,6.80533],[100.17801,6.68266],[100.17094,6.68165],[100.16846,6.68567],[100.16344,6.68435],[100.1568,6.68798],[100.14794,6.68753],[100.13738,6.68946],[100.13283,6.6922],[100.12549,6.69126],[100.12434,6.68852],[100.12274,6.69213],[100.12438,6.69506],[100.12214,6.69753],[100.119,6.72191],[100.10997,6.7282],[100.10082,6.72994],[100.10006,6.72282],[100.09796,6.72146],[100.07846,6.72361],[100.07854,6.72961],[100.08412,6.73985],[100.07766,6.74159],[100.07485,6.74563],[100.06938,6.74323],[100.07031,6.74508],[100.06869,6.75023],[100.06119,6.75329],[100.05384,6.75385],[100.0573,6.75571],[100.05732,6.75779],[100.04832,6.77545],[100.04381,6.79046],[100.03909,6.7962],[100.03608,6.79702],[100.03114,6.79274],[100.02807,6.79232],[100.02741,6.79482],[100.02358,6.79713],[100.02447,6.79959],[100.01123,6.80263],[100.00692,6.80533],[100.15725,6.57972],[100.1623,6.57624],[100.16451,6.57041],[100.16641,6.56985],[100.17005,6.57458],[100.17315,6.57276],[100.17593,6.56659],[100.17742,6.57244],[100.18357,6.57281],[100.18247,6.57587],[100.18429,6.57954],[100.18087,6.58334],[100.18124,6.58714],[100.17828,6.5923],[100.17871,6.59598],[100.18098,6.59736],[100.18098,6.60168],[100.17836,6.60461],[100.17566,6.60414],[100.16975,6.60851],[100.16871,6.62164],[100.16713,6.62354],[100.16844,6.62719],[100.16609,6.63161],[100.169,6.63264],[100.16828,6.64757],[100.1716,6.65031],[100.17518,6.65001],[100.18068,6.65428],[100.18058,6.66018],[100.17785,6.66896],[100.17986,6.67328],[100.17983,6.68041],[100.17801,6.68266],[100.15714,6.52468],[100.15626,6.54215],[100.15342,6.55436],[100.15436,6.55873],[100.15965,6.56256],[100.15858,6.56828],[100.15968,6.57046],[100.15826,6.57454],[100.15604,6.57493],[100.15725,6.57972],[100.16061,6.50299],[100.1584,6.50627],[100.15725,6.51572],[100.15457,6.52179],[100.15706,6.52213],[100.15746,6.52418],[100.1578,6.47848],[100.15906,6.48065],[100.15489,6.48324],[100.15439,6.48514],[100.15479,6.48689],[100.15944,6.48722],[100.16024,6.48862],[100.15986,6.49957],[100.15606,6.47756],[100.1578,6.47848],[100.14507,6.46069],[100.14565,6.46873],[100.1504,6.47036],[100.15174,6.47243],[100.15126,6.47584],[100.15396,6.4787],[100.15606,6.47756],[100.14232,6.44754],[100.1442,6.45094],[100.14803,6.45237],[100.14507,6.46069],[100.13053,6.42808],[100.13357,6.42925],[100.13523,6.43532],[100.13418,6.43907],[100.13648,6.4405],[100.13571,6.44418],[100.13974,6.44822],[100.14232,6.44754],[100.12381,6.42288],[100.12488,6.42523],[100.1278,6.42535],[100.13053,6.42808],[100.12042,6.42265],[100.12359,6.42281],[100.11872,6.43084],[100.12007,6.42351],[100.11472,6.45114],[100.11921,6.44288],[100.11769,6.43292],[100.11444,6.45921],[100.10208,6.49714],[100.1026,6.48922],[100.10788,6.47923],[100.11199,6.46299],[100.11444,6.45921],[100.10036,6.49844],[100.10208,6.49714],[100.0965,6.51758],[100.09267,6.51278],[100.09114,6.50088],[100.08421,6.49651],[100.08792,6.49353],[100.0893,6.49529],[100.09841,6.49676],[100.10036,6.49844],[100.0986,6.51715],[100.0965,6.51758],[100.09539,6.54242],[100.09965,6.52922],[100.0986,6.51715],[100.0903,6.54866],[100.09539,6.54242],[100.08115,6.55673],[100.0903,6.54866],[100.07798,6.55657],[100.08115,6.55673],[100.07013,6.53336],[100.07269,6.53451],[100.07118,6.53633],[100.07563,6.54569],[100.07798,6.55657],[100.06878,6.52918],[100.06986,6.53304],[100.03559,6.53368],[100.04548,6.52514],[100.05448,6.51829],[100.06409,6.51611],[100.06888,6.5257],[100.06878,6.52918],[100.01129,6.55742],[100.02004,6.54712],[100.03559,6.53368],[100.01085,6.55791],[99.98973,6.5947],[100.00481,6.56531],[100.01085,6.55791],[99.98511,6.60679],[99.98973,6.5947],[99.92241,6.68087],[99.92018,6.67639],[99.93496,6.6573],[99.93854,6.65736],[99.9455,6.66182],[99.95624,6.65848],[99.96354,6.64439],[99.96447,6.63768],[99.97472,6.62876],[99.97011,6.62108],[99.96366,6.6187],[99.96201,6.61646],[99.95638,6.61758],[99.95396,6.62021],[99.94985,6.61662],[99.95087,6.60852],[99.94893,6.60291],[99.94982,6.59554],[99.94871,6.59032],[99.95099,6.58322],[99.95492,6.58557],[99.95802,6.5906],[99.96893,6.59425],[99.97316,6.59689],[99.97739,6.60354],[99.98511,6.60679],[99.9519,6.65459],[99.95271,6.65728],[99.94869,6.65089],[99.95028,6.65097],[99.9519,6.65459],[99.9757,6.58618],[99.97326,6.58332],[99.97585,6.58607],[99.98056,6.55748],[99.98255,6.5604],[99.95772,6.55012],[99.95777,6.54801],[99.95802,6.55012],[99.9546,6.55065],[99.95496,6.53883],[99.9914,6.53906],[100.10225,6.45263],[100.10331,6.45592],[100.10147,6.45807],[100.10045,6.45392],[100.10225,6.45263],[100.06243,6.44572],[100.0634,6.4495],[100.06587,6.45137],[100.06402,6.45297],[100.05996,6.44689],[100.0616,6.44499],[100.07142,6.47119],[100.07021,6.47129],[100.06734,6.46231],[100.06521,6.46055],[100.06548,6.45917],[100.07378,6.46476],[100.07214,6.47067],[100.08856,6.42973],[100.08864,6.42608],[100.09087,6.4267],[100.09088,6.42984],[100.08856,6.42973],[100.08866,6.43513],[100.08816,6.4304],[100.08947,6.4329],[99.7045,6.73437],[99.70575,6.72932],[99.70832,6.73194],[99.70572,6.73334],[99.70578,6.73514],[99.7045,6.73437],[99.69813,6.51934],[99.702,6.5178],[99.70125,6.51935],[99.70392,6.51912],[99.70361,6.52091],[99.70541,6.51954],[99.7049,6.52419],[99.70178,6.52119],[99.70168,6.52246],[99.6992,6.52252],[99.69813,6.51934],[99.69353,6.51713],[99.69477,6.5188],[99.69337,6.52018],[99.69308,6.52735],[99.69035,6.52621],[99.68952,6.52394],[99.69186,6.51765],[99.6932,6.51746],[99.6955,6.53045],[99.69529,6.5294],[99.6955,6.53045],[99.63914,6.53714],[99.64414,6.51878],[99.64896,6.51309],[99.64977,6.50852],[99.65335,6.50333],[99.66047,6.50493],[99.66561,6.51355],[99.66776,6.51415],[99.67325,6.51199],[99.66881,6.51967],[99.66982,6.52155],[99.67215,6.52053],[99.67146,6.52285],[99.66845,6.52488],[99.67714,6.53947],[99.6807,6.53492],[99.68558,6.53671],[99.6861,6.53379],[99.69018,6.52875],[99.69405,6.52842],[99.69416,6.53204],[99.69195,6.53348],[99.69508,6.53694],[99.69487,6.54141],[99.69858,6.54231],[99.69929,6.55364],[99.6984,6.55796],[99.69497,6.55796],[99.69199,6.56128],[99.69133,6.57063],[99.69519,6.57386],[99.69507,6.57562],[99.69374,6.57468],[99.69302,6.57588],[99.69524,6.57743],[99.69558,6.58051],[99.6958,6.58959],[99.69268,6.59589],[99.69485,6.59693],[99.69426,6.60155],[99.69209,6.60753],[99.6881,6.60215],[99.68788,6.60622],[99.68674,6.60434],[99.68633,6.60557],[99.68725,6.60749],[99.68578,6.60698],[99.68178,6.61451],[99.679,6.61647],[99.68036,6.61877],[99.67895,6.63166],[99.68177,6.6334],[99.68128,6.64084],[99.68511,6.6381],[99.68563,6.63931],[99.68242,6.64178],[99.6854,6.64492],[99.68421,6.64873],[99.68528,6.66134],[99.683,6.67426],[99.68441,6.68008],[99.68317,6.68369],[99.68477,6.68385],[99.68109,6.69015],[99.6805,6.68875],[99.67904,6.68948],[99.67991,6.69315],[99.6777,6.69473],[99.67924,6.69653],[99.67722,6.69909],[99.67791,6.70044],[99.67634,6.70078],[99.67654,6.69852],[99.67386,6.69918],[99.67293,6.69554],[99.66998,6.69637],[99.66895,6.69988],[99.66563,6.70281],[99.66424,6.71618],[99.66164,6.71765],[99.66053,6.71631],[99.66091,6.71868],[99.6572,6.72754],[99.64744,6.73946],[99.64321,6.73819],[99.6408,6.73403],[99.64041,6.72037],[99.64332,6.71936],[99.64192,6.71734],[99.64438,6.71389],[99.64145,6.70506],[99.64475,6.70374],[99.65095,6.7067],[99.65661,6.70663],[99.65646,6.70355],[99.65529,6.70358],[99.65571,6.70576],[99.65365,6.70599],[99.64471,6.70282],[99.63691,6.67078],[99.63325,6.67097],[99.63133,6.66779],[99.62916,6.66942],[99.62888,6.66447],[99.62716,6.66247],[99.61933,6.66482],[99.61881,6.66179],[99.61481,6.65993],[99.61494,6.65089],[99.61863,6.64522],[99.61352,6.61986],[99.61004,6.61408],[99.60514,6.61462],[99.59988,6.61091],[99.59679,6.60332],[99.59658,6.59674],[99.60404,6.58225],[99.61157,6.57325],[99.61452,6.56604],[99.61809,6.56428],[99.62404,6.56583],[99.6265,6.56449],[99.63235,6.5537],[99.63822,6.5481],[99.63914,6.53714],[99.70707,6.54582],[99.70571,6.54644],[99.70761,6.54886],[99.70484,6.54778],[99.70571,6.54644],[99.72021,6.5831],[99.70016,6.61183],[99.70223,6.60644],[99.70153,6.61185],[99.6898,6.62187],[99.68873,6.61761],[99.6907,6.61675],[99.6898,6.62187],[99.69351,6.64231],[99.69185,6.64135],[99.69377,6.63814],[99.69351,6.64231],[99.6947,6.64485],[99.69388,6.64216],[99.69504,6.64239],[99.69338,6.64122],[99.69144,6.65142],[99.69218,6.65033],[99.69293,6.65131],[99.69061,6.65756],[99.69178,6.65633],[99.69097,6.65746],[99.69372,6.66365],[99.68893,6.66872],[99.68999,6.66202],[99.69151,6.66204],[99.69057,6.66823],[99.68893,6.66872],[99.69053,6.67324],[99.659,6.72975],[99.66204,6.72581],[99.66363,6.72606],[99.65927,6.73077],[99.65675,6.73682],[99.67084,6.7106],[99.67141,6.70628],[99.6728,6.70599],[99.67233,6.71124],[99.67084,6.7106],[99.67407,6.70427],[99.68183,6.62191],[99.6436,6.70354],[99.64875,6.70554],[99.6563,6.7039],[99.46729,6.56803],[99.46791,6.57154],[99.46561,6.56939],[99.46728,6.56789],[99.45426,6.58697],[99.45202,6.58645],[99.45288,6.58053],[99.4546,6.57839],[99.45706,6.57803],[99.45743,6.57921],[99.45715,6.58306],[99.45463,6.58638],[99.44444,6.55565],[99.44682,6.56079],[99.45316,6.56536],[99.45603,6.57576],[99.45303,6.57711],[99.45136,6.57622],[99.4495,6.57321],[99.4505,6.56951],[99.4459,6.56538],[99.44444,6.55565],[99.36609,6.48388],[99.35125,6.54964],[99.34522,6.55414],[99.34862,6.5625],[99.34245,6.57078],[99.34101,6.57038],[99.34067,6.56712],[99.34313,6.56553],[99.34619,6.55699],[99.34888,6.5608],[99.29177,6.57805],[99.27605,6.57694],[99.27406,6.57018],[99.27429,6.5551],[99.27601,6.54837],[99.28228,6.53818],[99.2866,6.51828],[99.28379,6.51351],[99.28509,6.51142],[99.28426,6.50864],[99.28681,6.5075],[99.28962,6.50925],[99.30586,6.50776],[99.31193,6.51065],[99.31469,6.50903],[99.3199,6.51615],[99.32325,6.52415],[99.3218,6.54652],[99.32349,6.55096],[99.32566,6.55177],[99.3184,6.55642],[99.31594,6.55539],[99.31378,6.55683],[99.3162,6.56434],[99.30824,6.56185],[99.30167,6.5665],[99.2969,6.56539],[99.29173,6.56804],[99.29032,6.57058],[99.27642,6.5773],[99.32522,6.55435],[99.28406,6.50834],[99.26226,6.51511],[99.25905,6.51249],[99.26318,6.51415],[99.26273,6.51561],[99.26904,6.51307],[99.26966,6.52444],[99.27036,6.52335],[99.2709,6.52444],[99.26128,6.54051],[99.26323,6.54215],[99.26217,6.54464],[99.25499,6.54315],[99.26128,6.54051],[99.213,6.54059],[99.2157,6.54058],[99.21798,6.53788],[99.22081,6.53873],[99.22732,6.54252],[99.22744,6.54578],[99.23362,6.54756],[99.23486,6.5495],[99.24768,6.55486],[99.25738,6.55589],[99.25908,6.56098],[99.25787,6.57161],[99.2562,6.57554],[99.24734,6.58295],[99.24059,6.58168],[99.23641,6.57747],[99.23181,6.57874],[99.23159,6.5809],[99.22298,6.57599],[99.22107,6.57599],[99.22064,6.57786],[99.21914,6.57557],[99.21507,6.57458],[99.21457,6.57575],[99.21064,6.57453],[99.20943,6.57716],[99.20492,6.57431],[99.20277,6.57599],[99.19877,6.5749],[99.1978,6.57837],[99.19607,6.57556],[99.19306,6.57729],[99.19114,6.57204],[99.1935,6.57124],[99.19342,6.56951],[99.19302,6.56727],[99.19037,6.56581],[99.19055,6.56157],[99.18065,6.55433],[99.18007,6.55133],[99.1832,6.5493],[99.18272,6.54757],[99.17938,6.54575],[99.17652,6.54802],[99.17474,6.54595],[99.17257,6.54683],[99.1712,6.55154],[99.16496,6.55259],[99.16621,6.54952],[99.16404,6.54762],[99.16665,6.54705],[99.16782,6.54337],[99.17214,6.5411],[99.1836,6.5401],[99.18621,6.54152],[99.18747,6.54546],[99.19144,6.54664],[99.19316,6.5448],[99.19614,6.54572],[99.19927,6.54167],[99.20091,6.54252],[99.20171,6.53908],[99.20324,6.54026],[99.20298,6.54296],[99.20654,6.53998],[99.213,6.54059],[99.19301,6.57782],[99.19375,6.5787],[99.18448,6.54031],[99.16362,6.54079],[99.1652,6.54091],[99.1636,6.5393],[99.17526,6.51637],[99.18412,6.52037],[99.18462,6.52322],[99.18089,6.52478],[99.1775,6.52384],[99.1777,6.52509],[99.17455,6.52684],[99.17369,6.53053],[99.16716,6.53255],[99.16447,6.53781],[99.16178,6.5377],[99.15828,6.54177],[99.1538,6.53309],[99.15525,6.52576],[99.15856,6.52222],[99.16583,6.52338],[99.16802,6.52003],[99.17219,6.51927],[99.17526,6.51637],[99.15995,6.54071],[99.15604,6.53846],[99.18701,6.52067],[99.18621,6.51933],[99.18728,6.5206],[99.17434,6.51522],[99.17389,6.51396],[99.17546,6.51438],[99.17434,6.51522],[99.17276,6.5128],[99.17429,6.51296],[99.1723,6.5059],[99.1739,6.50605],[99.17375,6.50817],[99.17844,6.50458],[99.18005,6.50693],[99.17647,6.50505],[99.17655,6.50298],[99.17828,6.50456],[99.18167,6.50181],[99.18285,6.50316],[99.17865,6.49896],[99.18008,6.49894],[99.1791,6.4995],[99.17755,6.49336],[99.1791,6.49571],[99.17791,6.49424],[99.33424,6.48695],[99.33516,6.48849],[99.3321,6.48775],[99.31815,6.49912],[99.31234,6.49331],[99.3135,6.49346],[99.3128,6.48469],[99.31398,6.48475],[99.30937,6.47942],[99.31117,6.48311],[99.30989,6.49166],[99.30625,6.4958],[99.30094,6.49374],[99.29998,6.49121],[99.29438,6.48748],[99.28739,6.48638],[99.28385,6.48224],[99.28732,6.48114],[99.29878,6.48679],[99.30248,6.48715],[99.30628,6.48412],[99.3067,6.48005],[99.30859,6.47978],[99.83424,6.6537]]]},"properties":{"name":"อำเภอเมืองสตูล","name_en":"Mueang Satun District","admin_level":"6"}},{"type":"Feature","geometry":{"type":"Polygon","coordinates":[[[100.30296,7.03941],[100.30266,7.05077],[100.30786,7.05459],[100.3086,7.05817],[100.31827,7.06036],[100.31691,7.07306],[100.31952,7.07492],[100.31909,7.07729],[100.32098,7.0776],[100.3207,7.08146],[100.32655,7.08289],[100.32922,7.08189],[100.33135,7.08789],[100.34028,7.07759],[100.34757,7.0771],[100.35212,7.07372],[100.36855,7.0777],[100.38417,7.08599],[100.39029,7.08732],[100.39956,7.08547],[100.40491,7.08864],[100.40689,7.09077],[100.40729,7.09709],[100.41216,7.10317],[100.41139,7.11024],[100.41769,7.11859],[100.42405,7.12185],[100.42986,7.12732],[100.42926,7.13449],[100.43282,7.13241],[100.43373,7.1299],[100.4342,7.13247],[100.4376,7.13283],[100.43565,7.13494],[100.43925,7.13983],[100.43658,7.14152],[100.43718,7.14435],[100.43951,7.14671],[100.44639,7.14888],[100.45115,7.16866],[100.46221,7.18704],[100.45211,7.15707],[100.45373,7.1308],[100.45723,7.12256],[100.45862,7.11095],[100.46186,7.1077],[100.46689,7.10837],[100.46961,7.10086],[100.47283,7.09847],[100.4718,7.09337],[100.4755,7.09128],[100.47492,7.08642],[100.47778,7.08365],[100.47639,7.07996],[100.47952,7.07942],[100.48174,7.0762],[100.47359,7.0752],[100.47217,7.07168],[100.46984,7.07362],[100.46723,7.07249],[100.46425,7.06766],[100.45901,7.06544],[100.45744,7.06022],[100.43555,7.06098],[100.43483,7.05995],[100.43546,7.05733],[100.44445,7.05072],[100.43912,7.03461],[100.45263,7.02798],[100.45026,7.02355],[100.45233,7.02091],[100.45055,7.01684],[100.44827,7.01739],[100.44434,7.01425],[100.44321,7.01607],[100.44125,7.01592],[100.42899,7.00553],[100.42524,7.00504],[100.42109,7.00052],[100.4175,7.00092],[100.41299,6.99883],[100.41346,6.99749],[100.40956,6.99721],[100.40707,6.99231],[100.40272,6.99331],[100.40237,6.99472],[100.39982,6.99428],[100.40087,6.99346],[100.39944,6.99234],[100.39618,6.99205],[100.39535,6.99275],[100.4014,7.00985],[100.39657,7.00765],[100.37687,7.01236],[100.3731,7.01591],[100.37208,7.02507],[100.36411,7.02943],[100.35913,7.0293],[100.35718,7.03149],[100.35433,7.0304],[100.3526,7.0335],[100.35346,7.02557],[100.34482,7.02884],[100.34097,7.02586],[100.3364,7.02478],[100.33357,7.02739],[100.32951,7.02825],[100.32581,7.03566],[100.31496,7.03612],[100.31287,7.03478],[100.30328,7.03921],[100.30296,7.03941]]]},"properties":{"name":"อำเภอบางกล่ำ","name_en":"Bang Klam District","admin_level":"6"}},{"type":"Feature","geometry":{"type":"Polygon","coordinates":[[[100.81892,6.95905],[100.819,6.95264],[100.82712,6.94977],[100.81986,6.94075],[100.8162,6.94219],[100.81785,6.94646],[100.8165,6.94797],[100.81129,6.94806],[100.80704,6.95117],[100.80284,6.94817],[100.80812,6.94139],[100.80841,6.9337],[100.81257,6.93249],[100.81616,6.92746],[100.81616,6.92509],[100.81352,6.91849],[100.81467,6.91457],[100.80958,6.90975],[100.81142,6.90716],[100.80924,6.90319],[100.81004,6.90028],[100.80878,6.90166],[100.80369,6.89429],[100.79881,6.89611],[100.79389,6.88973],[100.79685,6.87078],[100.79444,6.86288],[100.7938,6.85186],[100.79655,6.84203],[100.80082,6.83722],[100.81506,6.83261],[100.81694,6.82592],[100.81563,6.8227],[100.81856,6.81988],[100.81883,6.81682],[100.82323,6.81338],[100.82234,6.81119],[100.81988,6.81059],[100.82024,6.80577],[100.81674,6.80153],[100.81604,6.7973],[100.81327,6.79584],[100.81546,6.78863],[100.8126,6.78417],[100.80886,6.7819],[100.81264,6.7779],[100.81269,6.7756],[100.81012,6.77186],[100.80189,6.76953],[100.80164,6.76559],[100.79659,6.76293],[100.79809,6.7601],[100.79587,6.75808],[100.79549,6.75467],[100.79869,6.7493],[100.79493,6.74485],[100.79307,6.73793],[100.79012,6.73688],[100.78749,6.73929],[100.78817,6.7428],[100.78577,6.74564],[100.78168,6.74432],[100.77816,6.74598],[100.77771,6.7399],[100.76782,6.7481],[100.76366,6.74753],[100.75312,6.75401],[100.74877,6.75281],[100.74541,6.75821],[100.74355,6.76952],[100.73371,6.76782],[100.73215,6.76571],[100.72426,6.76817],[100.71995,6.77728],[100.71732,6.77503],[100.71724,6.77664],[100.71377,6.77807],[100.71705,6.78074],[100.71707,6.78332],[100.71233,6.78113],[100.70897,6.78267],[100.70553,6.77894],[100.7009,6.78243],[100.69839,6.77938],[100.69456,6.77994],[100.69205,6.77201],[100.68759,6.77674],[100.68345,6.77743],[100.68162,6.77947],[100.6819,6.7872],[100.67223,6.79199],[100.66212,6.79348],[100.65186,6.79777],[100.64015,6.79877],[100.63426,6.79516],[100.62366,6.79457],[100.61873,6.79111],[100.61204,6.79142],[100.61251,6.78816],[100.60879,6.78708],[100.60091,6.79181],[100.5958,6.79561],[100.59735,6.80115],[100.59504,6.80767],[100.59569,6.8122],[100.59343,6.81583],[100.58503,6.82001],[100.58905,6.84903],[100.58768,6.85286],[100.58896,6.85959],[100.58607,6.86583],[100.59007,6.87046],[100.58914,6.87353],[100.59126,6.87749],[100.59055,6.88032],[100.59365,6.88165],[100.59381,6.88498],[100.59206,6.88706],[100.59341,6.88792],[100.59323,6.89907],[100.59675,6.90137],[100.59989,6.91101],[100.61073,6.92294],[100.61522,6.92287],[100.62011,6.92576],[100.61115,6.93106],[100.60916,6.93581],[100.60986,6.9406],[100.60536,6.94711],[100.60875,6.95792],[100.60766,6.96162],[100.61015,6.96901],[100.61656,6.97194],[100.61877,6.97549],[100.62433,6.97818],[100.62896,6.98369],[100.62476,7.00196],[100.62674,7.00469],[100.62629,7.0101],[100.63066,7.01603],[100.63037,7.0187],[100.63594,7.02055],[100.63941,7.02464],[100.63766,7.03298],[100.64258,7.0357],[100.64247,7.04856],[100.65308,7.05311],[100.65575,7.053],[100.65896,7.04833],[100.65907,7.05258],[100.67378,7.05154],[100.67549,7.05324],[100.67325,7.056],[100.67379,7.05831],[100.67108,7.0611],[100.67189,7.06463],[100.66935,7.07548],[100.66295,7.09095],[100.6657,7.09564],[100.67395,7.10172],[100.69028,7.07804],[100.69536,7.07232],[100.69707,7.0732],[100.69552,7.07146],[100.69652,7.06998],[100.69877,7.07265],[100.69867,7.07072],[100.71,7.05289],[100.73334,7.02116],[100.76083,6.98983],[100.7826,6.97136],[100.80997,6.95423],[100.81808,6.95422],[100.81831,6.95905],[100.81892,6.95905]]]},"properties":{"name":"อำเภอจะนะ","name_en":"Chana District","admin_level":"6"}},{"type":"Feature","geometry":{"type":"Polygon","coordinates":[[[100.20716,6.89576],[100.20787,6.90843],[100.21067,6.91371],[100.21388,6.9152],[100.21439,6.91802],[100.20915,6.91921],[100.20213,6.92397],[100.19088,6.94724],[100.19428,6.96253],[100.19442,6.96484],[100.19212,6.96725],[100.19413,6.97539],[100.19671,6.97914],[100.19919,6.97959],[100.20077,6.98366],[100.20517,6.98434],[100.21428,6.9912],[100.2308,6.99565],[100.2346,7.00004],[100.2367,7.00021],[100.23646,7.00521],[100.23986,7.00458],[100.241,7.00657],[100.2414,7.00508],[100.24401,7.00917],[100.24768,7.01137],[100.24847,7.01056],[100.25259,7.01527],[100.25451,7.01183],[100.25846,7.01358],[100.26053,7.01764],[100.26317,7.01857],[100.26582,7.01586],[100.2732,7.01604],[100.27721,7.02227],[100.2859,7.02384],[100.29253,7.03173],[100.30025,7.03235],[100.30296,7.03941],[100.31287,7.03478],[100.31496,7.03612],[100.32581,7.03566],[100.32951,7.02825],[100.33357,7.02739],[100.3364,7.02478],[100.34097,7.02586],[100.34482,7.02884],[100.35346,7.02557],[100.3527,7.0335],[100.35424,7.03043],[100.35718,7.03149],[100.35913,7.0293],[100.36405,7.02945],[100.37204,7.02511],[100.3731,7.01591],[100.37687,7.01236],[100.39657,7.00765],[100.4014,7.00985],[100.39536,6.99251],[100.39926,6.99227],[100.40087,6.99346],[100.39983,6.99429],[100.40258,6.99471],[100.4027,6.99333],[100.40454,6.99371],[100.40614,6.99203],[100.40956,6.99721],[100.41346,6.99749],[100.41299,6.99883],[100.4175,7.00092],[100.42109,7.00052],[100.42524,7.00504],[100.42899,7.00553],[100.44125,7.01592],[100.44321,7.01607],[100.44434,7.01425],[100.44827,7.01739],[100.45058,7.01687],[100.45233,7.02091],[100.45026,7.02355],[100.45263,7.02798],[100.43912,7.03461],[100.44445,7.05072],[100.43546,7.05733],[100.43483,7.05995],[100.43555,7.06098],[100.45744,7.06022],[100.45901,7.06544],[100.46425,7.06766],[100.46723,7.07249],[100.46984,7.07362],[100.47217,7.07168],[100.47359,7.0752],[100.48174,7.0762],[100.47952,7.07942],[100.47639,7.07996],[100.47778,7.08365],[100.47492,7.08642],[100.4755,7.09128],[100.4718,7.09337],[100.47283,7.09847],[100.46961,7.10086],[100.46689,7.10837],[100.46186,7.1077],[100.45862,7.11095],[100.45723,7.12256],[100.45373,7.1308],[100.45211,7.15707],[100.46221,7.18704],[100.52429,7.14517],[100.53094,7.1433],[100.53754,7.14361],[100.55492,7.15093],[100.56003,7.14806],[100.55747,7.14271],[100.56195,7.14127],[100.56222,7.13925],[100.56097,7.13719],[100.55722,7.13588],[100.55785,7.12908],[100.55419,7.12619],[100.55704,7.12302],[100.55657,7.1162],[100.55837,7.11043],[100.56277,7.10811],[100.56309,7.09443],[100.56476,7.0943],[100.56659,7.06923],[100.57022,7.06662],[100.57529,7.06684],[100.57572,7.06092],[100.57816,7.06123],[100.58024,7.05623],[100.58772,7.05679],[100.58806,7.05238],[100.5924,7.04928],[100.59572,7.04933],[100.59591,7.04538],[100.60575,7.04788],[100.60811,7.04118],[100.60694,7.03773],[100.60229,7.03296],[100.60114,7.02556],[100.58854,7.01629],[100.58202,7.01394],[100.58088,7.01077],[100.57546,7.01315],[100.56883,7.01166],[100.56332,7.01305],[100.55808,7.00959],[100.55783,7.0058],[100.5594,7.00338],[100.55372,7.00051],[100.54749,7.00105],[100.54826,6.99853],[100.54681,6.99479],[100.54032,6.99108],[100.53856,6.98823],[100.53977,6.97809],[100.54137,6.97566],[100.54006,6.97299],[100.53798,6.97523],[100.53478,6.97526],[100.53215,6.9808],[100.5285,6.97945],[100.52349,6.98526],[100.52161,6.99287],[100.51957,6.98854],[100.51242,6.98209],[100.5114,6.97876],[100.50692,6.97536],[100.50314,6.96747],[100.50334,6.96321],[100.50549,6.96081],[100.50994,6.96005],[100.51083,6.95716],[100.50628,6.95233],[100.50641,6.94765],[100.51201,6.94512],[100.5195,6.94518],[100.52055,6.93118],[100.52269,6.92795],[100.52218,6.91939],[100.52026,6.9149],[100.52206,6.9079],[100.53027,6.89585],[100.52963,6.89309],[100.54035,6.88825],[100.54096,6.88375],[100.53642,6.87979],[100.53526,6.87412],[100.54894,6.87557],[100.55038,6.87703],[100.56828,6.87645],[100.57215,6.87931],[100.57236,6.88252],[100.57444,6.88414],[100.58153,6.87801],[100.58484,6.88582],[100.59206,6.88706],[100.59377,6.88513],[100.59354,6.88141],[100.59049,6.88021],[100.59126,6.87749],[100.58914,6.87353],[100.59007,6.87046],[100.58607,6.86583],[100.58896,6.85959],[100.58768,6.85286],[100.58905,6.84903],[100.585,6.82031],[100.59343,6.81583],[100.59569,6.8122],[100.59504,6.80767],[100.59735,6.80115],[100.59618,6.79738],[100.58579,6.79701],[100.58595,6.79362],[100.58177,6.78742],[100.57084,6.78741],[100.56503,6.78885],[100.55725,6.79604],[100.55034,6.79761],[100.54639,6.79452],[100.54334,6.79512],[100.53663,6.80336],[100.5199,6.81077],[100.48347,6.81092],[100.48308,6.81343],[100.47192,6.81379],[100.47177,6.81064],[100.46916,6.81568],[100.46612,6.81643],[100.46519,6.81907],[100.46676,6.82021],[100.46423,6.82077],[100.45933,6.82577],[100.45928,6.82788],[100.46226,6.83031],[100.45972,6.83438],[100.44901,6.83667],[100.45788,6.83862],[100.45824,6.84321],[100.46396,6.84362],[100.465,6.84806],[100.46389,6.8494],[100.46508,6.84967],[100.46405,6.85038],[100.46576,6.85114],[100.46338,6.8552],[100.46654,6.85848],[100.46791,6.85784],[100.46827,6.85971],[100.46375,6.85957],[100.46176,6.8623],[100.45992,6.85985],[100.4576,6.86182],[100.45653,6.87364],[100.46037,6.87923],[100.458,6.87982],[100.459,6.88235],[100.45557,6.88597],[100.45593,6.88854],[100.458,6.88912],[100.45641,6.89005],[100.45929,6.89278],[100.45698,6.90045],[100.45448,6.90056],[100.45726,6.90433],[100.45633,6.90552],[100.4552,6.90466],[100.45512,6.90736],[100.4486,6.91393],[100.44657,6.93106],[100.44209,6.92876],[100.43996,6.93002],[100.43988,6.93545],[100.44133,6.93692],[100.43998,6.93977],[100.4332,6.93656],[100.42876,6.937],[100.42142,6.93231],[100.41557,6.93419],[100.41494,6.93917],[100.40387,6.93779],[100.40217,6.94054],[100.39732,6.93771],[100.39244,6.93786],[100.39254,6.9365],[100.37285,6.93388],[100.37315,6.93057],[100.36536,6.93141],[100.36122,6.92944],[100.34271,6.92733],[100.34113,6.92378],[100.33354,6.92072],[100.33368,6.91672],[100.33156,6.91406],[100.32544,6.91334],[100.3235,6.90919],[100.32263,6.90981],[100.31919,6.90029],[100.31596,6.89682],[100.30504,6.89768],[100.30219,6.89972],[100.29997,6.8969],[100.29226,6.89308],[100.29132,6.89065],[100.28843,6.89019],[100.28419,6.89281],[100.27907,6.88586],[100.27354,6.88597],[100.2616,6.86759],[100.26315,6.86356],[100.25908,6.86341],[100.25923,6.86051],[100.25826,6.86183],[100.25694,6.86007],[100.25137,6.85957],[100.25037,6.85213],[100.24768,6.84834],[100.24425,6.854],[100.23799,6.85673],[100.23142,6.85098],[100.21071,6.84615],[100.21097,6.85719],[100.21482,6.86165],[100.21767,6.8686],[100.22062,6.87078],[100.2186,6.87192],[100.2187,6.87954],[100.21293,6.88327],[100.21155,6.88771],[100.20879,6.88844],[100.20741,6.89547],[100.20716,6.89576]]]},"properties":{"name":"อำเภอหาดใหญ่","name_en":"Hat Yai District","admin_level":"6"}},{"type":"Feature","geometry":{"type":"Polygon","coordinates":[[[100.45025,6.83557],[100.44694,6.83548],[100.43982,6.84199],[100.42624,6.8368],[100.41423,6.84627],[100.40813,6.84533],[100.40617,6.84372],[100.40529,6.83785],[100.40224,6.83452],[100.40151,6.82504],[100.39741,6.82077],[100.39537,6.82045],[100.39287,6.82575],[100.38574,6.82836],[100.38486,6.82468],[100.38186,6.82356],[100.38038,6.81776],[100.37033,6.81714],[100.37008,6.81308],[100.36768,6.80962],[100.35751,6.80912],[100.35513,6.80191],[100.35752,6.80047],[100.35749,6.7967],[100.35487,6.79228],[100.35503,6.7833],[100.35302,6.78066],[100.34689,6.77918],[100.34536,6.78119],[100.34233,6.78024],[100.34125,6.78128],[100.34251,6.78237],[100.33827,6.78316],[100.33603,6.78572],[100.33677,6.78773],[100.33484,6.78796],[100.33425,6.79001],[100.33007,6.78753],[100.32093,6.79123],[100.32177,6.78987],[100.32007,6.78845],[100.3162,6.78795],[100.31402,6.78907],[100.31368,6.79111],[100.30873,6.7925],[100.30657,6.78995],[100.30775,6.78827],[100.30377,6.78676],[100.29622,6.78993],[100.29209,6.78542],[100.27828,6.78695],[100.27599,6.78544],[100.27629,6.78328],[100.26945,6.78091],[100.26591,6.78474],[100.26291,6.78028],[100.26038,6.78005],[100.26022,6.77741],[100.24941,6.78461],[100.24522,6.78622],[100.24453,6.78425],[100.24014,6.78695],[100.23703,6.78686],[100.23583,6.79106],[100.23748,6.79321],[100.23579,6.79436],[100.23663,6.79691],[100.23365,6.79787],[100.23542,6.79946],[100.23055,6.80023],[100.22846,6.80347],[100.22889,6.81154],[100.22697,6.81735],[100.21806,6.82415],[100.21281,6.83184],[100.20997,6.83296],[100.2059,6.84182],[100.2105,6.84346],[100.21071,6.84615],[100.23142,6.85098],[100.23778,6.8567],[100.2435,6.85463],[100.24826,6.8487],[100.25037,6.85213],[100.25137,6.85957],[100.25694,6.86007],[100.25826,6.86183],[100.25923,6.86051],[100.25908,6.86341],[100.26315,6.86356],[100.2616,6.86759],[100.27354,6.88597],[100.27907,6.88586],[100.28419,6.89281],[100.28843,6.89019],[100.29132,6.89065],[100.29226,6.89308],[100.29997,6.8969],[100.30219,6.89972],[100.30504,6.89768],[100.31596,6.89682],[100.31919,6.90029],[100.32263,6.90981],[100.3235,6.90919],[100.32544,6.91334],[100.33156,6.91406],[100.33368,6.91672],[100.33354,6.92072],[100.34113,6.92378],[100.34271,6.92733],[100.36122,6.92944],[100.36536,6.93141],[100.37315,6.93057],[100.37285,6.93388],[100.39254,6.9365],[100.39244,6.93786],[100.39732,6.93771],[100.40217,6.94054],[100.40387,6.93779],[100.41494,6.93917],[100.41557,6.93419],[100.42142,6.93231],[100.42876,6.937],[100.4332,6.93656],[100.43985,6.93978],[100.44133,6.93692],[100.43988,6.93545],[100.43996,6.93002],[100.44209,6.92876],[100.44657,6.93106],[100.4486,6.91393],[100.45512,6.90736],[100.4552,6.90466],[100.45633,6.90552],[100.45726,6.90433],[100.45448,6.90056],[100.45698,6.90045],[100.45929,6.89278],[100.45641,6.89005],[100.458,6.88912],[100.45593,6.88854],[100.45557,6.88597],[100.459,6.88235],[100.458,6.87982],[100.46037,6.87923],[100.45653,6.87364],[100.4576,6.86182],[100.45992,6.85985],[100.46176,6.8623],[100.46375,6.85957],[100.46827,6.85971],[100.46791,6.85784],[100.46654,6.85848],[100.46338,6.8552],[100.46576,6.85114],[100.46405,6.85038],[100.46508,6.84967],[100.46389,6.8494],[100.465,6.84806],[100.46396,6.84362],[100.45818,6.84318],[100.45788,6.83862],[100.44999,6.83768],[100.44901,6.83667],[100.45036,6.83607],[100.45025,6.83557]]]},"properties":{"name":"อำเภอคลองหอยโข่ง","name_en":"Khlong Hoi Khong District","admin_level":"6"}},{"type":"Feature","geometry":{"type":"Polygon","coordinates":[[[100.33203,7.08785],[100.33513,7.09276],[100.33371,7.10301],[100.3382,7.10491],[100.33952,7.11428],[100.34674,7.11693],[100.35009,7.12385],[100.34899,7.1286],[100.34527,7.12585],[100.34145,7.12822],[100.34187,7.12978],[100.33797,7.12925],[100.33686,7.1315],[100.33952,7.13542],[100.33825,7.13702],[100.33373,7.13671],[100.33203,7.13915],[100.32931,7.13881],[100.32779,7.14334],[100.32481,7.14077],[100.32887,7.14857],[100.32725,7.16316],[100.32964,7.16943],[100.32858,7.17505],[100.33049,7.17706],[100.33144,7.18548],[100.33731,7.1877],[100.33889,7.19004],[100.33939,7.19338],[100.33613,7.19729],[100.34026,7.2079],[100.31673,7.23135],[100.3246,7.23603],[100.32882,7.2362],[100.33428,7.23912],[100.33323,7.24348],[100.34072,7.24818],[100.34152,7.25089],[100.33935,7.26046],[100.34158,7.27534],[100.34542,7.27373],[100.34835,7.27759],[100.35954,7.2779],[100.36144,7.28071],[100.35682,7.29305],[100.35657,7.29647],[100.35876,7.30064],[100.36249,7.30266],[100.37392,7.30434],[100.37526,7.31169],[100.3785,7.31325],[100.37976,7.30751],[100.37862,7.30139],[100.38459,7.29057],[100.38304,7.27969],[100.38603,7.27497],[100.39511,7.26924],[100.40057,7.2628],[100.40864,7.26536],[100.42298,7.26151],[100.43273,7.25298],[100.43941,7.25035],[100.46221,7.18704],[100.45115,7.16866],[100.44639,7.14888],[100.43951,7.14671],[100.43718,7.14435],[100.43658,7.14152],[100.43925,7.13983],[100.43565,7.13494],[100.4376,7.13283],[100.4342,7.13247],[100.43373,7.1299],[100.43282,7.13241],[100.42926,7.13449],[100.42986,7.12732],[100.42405,7.12185],[100.41769,7.11859],[100.41139,7.11024],[100.41216,7.10317],[100.40729,7.09709],[100.40689,7.09077],[100.40491,7.08864],[100.39956,7.08547],[100.39029,7.08732],[100.38417,7.08599],[100.36855,7.0777],[100.35212,7.07372],[100.34757,7.0771],[100.34028,7.07759],[100.33673,7.08251],[100.33382,7.08383],[100.33201,7.0876],[100.33203,7.08785]]]},"properties":{"name":"อำเภอควนเนียง","name_en":"Khuan Niang District","admin_level":"6"}},{"type":"Feature","geometry":{"type":"Polygon","coordinates":[[[100.63037,7.0187],[100.62325,7.01848],[100.61827,7.01511],[100.61024,7.0156],[100.6102,7.02048],[100.60407,7.02177],[100.60045,7.02507],[100.60229,7.03296],[100.60694,7.03773],[100.60811,7.04118],[100.60575,7.04788],[100.59591,7.04538],[100.59572,7.04933],[100.5924,7.04928],[100.58806,7.05238],[100.58772,7.05679],[100.58024,7.05623],[100.57816,7.06123],[100.57572,7.06092],[100.57529,7.06684],[100.57022,7.06662],[100.56659,7.06923],[100.56476,7.0943],[100.56309,7.09443],[100.56277,7.10811],[100.55837,7.11043],[100.55657,7.1162],[100.55704,7.12302],[100.55419,7.12619],[100.55785,7.12908],[100.55722,7.13588],[100.56097,7.13719],[100.56222,7.13925],[100.56195,7.14127],[100.55747,7.14271],[100.56003,7.14806],[100.55492,7.15093],[100.53754,7.14361],[100.53094,7.1433],[100.52429,7.14517],[100.46221,7.18704],[100.54711,7.18892],[100.57265,7.16882],[100.58175,7.18235],[100.58503,7.19445],[100.57519,7.22354],[100.57685,7.22726],[100.58325,7.23355],[100.58173,7.23202],[100.58853,7.217],[100.59106,7.21507],[100.5968,7.21505],[100.61404,7.18637],[100.61859,7.18214],[100.62304,7.18209],[100.67395,7.10172],[100.6657,7.09564],[100.66295,7.09095],[100.66935,7.07548],[100.67189,7.06463],[100.67108,7.0611],[100.67379,7.05831],[100.67325,7.056],[100.67549,7.05324],[100.67378,7.05154],[100.65907,7.05258],[100.65903,7.04833],[100.65553,7.05306],[100.65023,7.05259],[100.64318,7.04933],[100.64258,7.0357],[100.63772,7.03326],[100.63953,7.02496],[100.63487,7.02006],[100.63037,7.0187],[100.59596,7.23948],[100.59548,7.23568],[100.59818,7.23322],[100.59835,7.23709],[100.59596,7.23948],[100.63037,7.0187]]]},"properties":{"name":"อำเภอเมืองสงขลา","name_en":"Mueang Songkhla District","admin_level":"6"}},{"type":"Feature","geometry":{"type":"Polygon","coordinates":[[[100.60045,7.02507],[100.58854,7.01629],[100.58202,7.01394],[100.58061,7.01062],[100.57546,7.01315],[100.56883,7.01166],[100.56332,7.01305],[100.55808,7.00959],[100.55783,7.0058],[100.5594,7.00338],[100.55372,7.00051],[100.54757,7.00112],[100.54681,6.99479],[100.54032,6.99108],[100.53856,6.98823],[100.53977,6.97809],[100.54137,6.97566],[100.54006,6.97299],[100.53798,6.97523],[100.53478,6.97526],[100.53215,6.9808],[100.5285,6.97945],[100.52349,6.98526],[100.52161,6.99287],[100.51957,6.98854],[100.51242,6.98209],[100.5114,6.97876],[100.50699,6.97546],[100.50314,6.96747],[100.50373,6.96223],[100.50994,6.96005],[100.51083,6.95716],[100.50628,6.95233],[100.50627,6.94782],[100.51201,6.94512],[100.5195,6.94518],[100.52055,6.93118],[100.52269,6.92795],[100.52218,6.91939],[100.52026,6.9149],[100.52206,6.9079],[100.53027,6.89585],[100.52963,6.89309],[100.54035,6.88825],[100.54096,6.88375],[100.53642,6.87979],[100.53526,6.87412],[100.54894,6.87557],[100.55038,6.87703],[100.56828,6.87645],[100.57215,6.87931],[100.57236,6.88252],[100.57444,6.88414],[100.58183,6.87813],[100.58477,6.88576],[100.59332,6.8876],[100.59323,6.89907],[100.59675,6.90137],[100.59754,6.9068],[100.60263,6.9146],[100.61073,6.92294],[100.61522,6.92287],[100.62011,6.92576],[100.611,6.93124],[100.60916,6.93581],[100.60986,6.9406],[100.60541,6.94801],[100.60742,6.95079],[100.60877,6.95806],[100.60766,6.96162],[100.61015,6.96901],[100.61656,6.97194],[100.61877,6.97549],[100.62433,6.97818],[100.62896,6.98369],[100.62476,7.00204],[100.6267,7.00452],[100.62629,7.0101],[100.63066,7.01603],[100.63046,7.01846],[100.62325,7.01848],[100.61827,7.01511],[100.61033,7.01554],[100.6102,7.02048],[100.60407,7.02177],[100.60094,7.02464],[100.60045,7.02507]]]},"properties":{"name":"อำเภอนาหม่อม","name_en":"Na Mom District","admin_level":"6"}},{"type":"Feature","geometry":{"type":"Polygon","coordinates":[[[100.6518,6.44264],[100.66214,6.45099],[100.6791,6.45407],[100.68474,6.45366],[100.68392,6.4567],[100.68658,6.46189],[100.68647,6.4649],[100.69375,6.4643],[100.69755,6.46605],[100.69715,6.46973],[100.69858,6.47141],[100.70342,6.46977],[100.70938,6.47087],[100.71222,6.48177],[100.71889,6.48554],[100.72024,6.49084],[100.72344,6.49522],[100.7292,6.49503],[100.73075,6.49712],[100.72933,6.50077],[100.73159,6.50234],[100.73036,6.50535],[100.73317,6.50558],[100.73439,6.5103],[100.73864,6.51035],[100.74049,6.50746],[100.74898,6.51429],[100.74842,6.53072],[100.75059,6.53449],[100.75043,6.53766],[100.76028,6.54195],[100.75741,6.54327],[100.75666,6.5461],[100.75025,6.54764],[100.75863,6.55472],[100.76177,6.55514],[100.76634,6.56011],[100.77168,6.55998],[100.77387,6.55828],[100.77792,6.56038],[100.78052,6.56347],[100.78026,6.56981],[100.78294,6.57454],[100.78204,6.57702],[100.78629,6.57774],[100.79043,6.57545],[100.79183,6.57944],[100.78851,6.5924],[100.77569,6.59639],[100.77584,6.60353],[100.76621,6.61487],[100.76961,6.62427],[100.76863,6.63009],[100.77861,6.63791],[100.78786,6.63215],[100.79066,6.62808],[100.79561,6.62813],[100.79765,6.62979],[100.79531,6.63352],[100.79686,6.63688],[100.80568,6.63838],[100.80845,6.6403],[100.81083,6.64833],[100.80553,6.65473],[100.80548,6.65825],[100.81599,6.66297],[100.81789,6.66906],[100.81722,6.67321],[100.81313,6.67876],[100.82504,6.6929],[100.81929,6.70208],[100.83133,6.71524],[100.83011,6.71752],[100.82378,6.71843],[100.81501,6.72604],[100.81068,6.72742],[100.80662,6.73666],[100.80001,6.74293],[100.79932,6.74895],[100.79493,6.74485],[100.79255,6.73754],[100.78979,6.73692],[100.78774,6.73897],[100.78799,6.74343],[100.78577,6.74564],[100.78168,6.74432],[100.77816,6.74598],[100.77748,6.73995],[100.76782,6.7481],[100.76366,6.74753],[100.75312,6.75401],[100.74877,6.75281],[100.74541,6.75821],[100.74376,6.76941],[100.73371,6.76782],[100.73215,6.76571],[100.72426,6.76817],[100.71995,6.77728],[100.71732,6.77503],[100.71724,6.77664],[100.71377,6.77807],[100.71705,6.78074],[100.71707,6.78332],[100.71233,6.78113],[100.70897,6.78267],[100.70553,6.77894],[100.7009,6.78243],[100.69839,6.77938],[100.69456,6.77994],[100.69205,6.77201],[100.68759,6.77674],[100.68345,6.77743],[100.68162,6.77947],[100.6819,6.7872],[100.67223,6.79199],[100.66212,6.79348],[100.655,6.79707],[100.64112,6.7988],[100.63426,6.79516],[100.62366,6.79457],[100.61873,6.79111],[100.61204,6.79142],[100.61251,6.78816],[100.60871,6.78707],[100.59627,6.7949],[100.5961,6.79741],[100.58608,6.79715],[100.58595,6.79362],[100.58177,6.78742],[100.58192,6.78361],[100.5792,6.78035],[100.57844,6.77637],[100.57021,6.77311],[100.56573,6.76128],[100.56067,6.75973],[100.56024,6.75818],[100.55469,6.7579],[100.55471,6.75198],[100.55255,6.75044],[100.55117,6.74255],[100.55367,6.74054],[100.55418,6.73607],[100.54502,6.72475],[100.54882,6.7232],[100.55343,6.71796],[100.56092,6.71589],[100.56037,6.71161],[100.5536,6.70192],[100.55351,6.69761],[100.5626,6.68984],[100.5616,6.68477],[100.56329,6.67931],[100.56509,6.67533],[100.56904,6.67309],[100.57113,6.6654],[100.56701,6.65879],[100.56609,6.65122],[100.57014,6.63324],[100.57219,6.63028],[100.57236,6.6266],[100.56903,6.62025],[100.5718,6.61276],[100.56517,6.60258],[100.569,6.59648],[100.56508,6.59492],[100.5642,6.58816],[100.56851,6.58164],[100.57117,6.57047],[100.57716,6.56677],[100.5796,6.56216],[100.58683,6.5612],[100.5934,6.56433],[100.59398,6.54895],[100.5994,6.54318],[100.59813,6.53686],[100.60351,6.53383],[100.60265,6.52812],[100.60825,6.52349],[100.60871,6.51823],[100.61224,6.51523],[100.60759,6.50885],[100.61126,6.50524],[100.60992,6.50042],[100.61142,6.49857],[100.60772,6.494],[100.60737,6.49072],[100.61011,6.48297],[100.60809,6.47208],[100.6092,6.46921],[100.61383,6.46584],[100.61401,6.46213],[100.6181,6.45973],[100.62625,6.45777],[100.64632,6.4584],[100.64599,6.45331],[100.64256,6.45001],[100.64565,6.44864],[100.64657,6.44632],[100.65039,6.44575],[100.65153,6.44284],[100.6518,6.44264]]]},"properties":{"name":"อำเภอนาทวี","name_en":"Na Thawi District","admin_level":"6"}},{"type":"Feature","geometry":{"type":"Polygon","coordinates":[[[100.31673,7.23135],[100.31442,7.22957],[100.31468,7.22661],[100.31142,7.22206],[100.31203,7.2204],[100.30461,7.20861],[100.29289,7.21136],[100.27998,7.21091],[100.27363,7.20769],[100.2715,7.20812],[100.26929,7.20404],[100.2615,7.20127],[100.25781,7.19693],[100.25022,7.19945],[100.24131,7.19248],[100.23593,7.19196],[100.23272,7.19417],[100.22552,7.19251],[100.22396,7.19382],[100.22049,7.19097],[100.2157,7.18972],[100.21282,7.1859],[100.2086,7.18688],[100.20628,7.18372],[100.20125,7.18445],[100.19772,7.18095],[100.19521,7.18262],[100.19039,7.1805],[100.18725,7.17673],[100.18498,7.17785],[100.18387,7.17582],[100.18315,7.177],[100.17983,7.17618],[100.17757,7.1742],[100.17514,7.17533],[100.17454,7.17304],[100.17235,7.1723],[100.17026,7.16463],[100.16821,7.16503],[100.16801,7.16283],[100.16605,7.16286],[100.16804,7.1601],[100.16477,7.1588],[100.16581,7.15587],[100.16195,7.15536],[100.16005,7.1515],[100.15791,7.15163],[100.15626,7.14871],[100.1524,7.15286],[100.14779,7.14896],[100.14526,7.15031],[100.14372,7.14948],[100.14156,7.15215],[100.13615,7.15227],[100.13409,7.15494],[100.13399,7.15884],[100.12895,7.1592],[100.1237,7.16336],[100.12506,7.16433],[100.12362,7.16556],[100.12171,7.16476],[100.12059,7.16647],[100.11956,7.16454],[100.11521,7.1668],[100.10557,7.16326],[100.10511,7.16089],[100.09996,7.15552],[100.09841,7.15589],[100.09642,7.15173],[100.09065,7.14835],[100.08339,7.14619],[100.07504,7.14716],[100.06844,7.13862],[100.06239,7.13723],[100.06356,7.13506],[100.06007,7.12626],[100.06099,7.12381],[100.06774,7.11896],[100.06773,7.11192],[100.05722,7.10758],[100.05456,7.09514],[100.0575,7.09033],[100.06007,7.0891],[100.05941,7.08575],[100.06303,7.07623],[100.06128,7.07554],[100.06047,7.07139],[100.06373,7.06775],[100.06375,7.05696],[100.07387,7.04992],[100.07362,7.0474],[100.07079,7.04582],[100.07125,7.04384],[100.07726,7.04425],[100.07904,7.042],[100.07817,7.03723],[100.07504,7.03326],[100.07054,7.03179],[100.06771,7.03325],[100.06565,7.03134],[100.06679,7.02531],[100.06321,7.01841],[100.06625,7.01278],[100.07784,7.00534],[100.08301,6.99803],[100.08329,6.99481],[100.07978,6.98861],[100.08102,6.98008],[100.07903,6.96325],[100.09482,6.96509],[100.09953,6.95702],[100.10176,6.9487],[100.10582,6.94875],[100.10785,6.94521],[100.11232,6.94314],[100.11994,6.93604],[100.12175,6.92386],[100.13781,6.92208],[100.14161,6.92506],[100.14617,6.92518],[100.15733,6.91942],[100.16348,6.9138],[100.16596,6.91437],[100.1678,6.91177],[100.17362,6.91341],[100.17739,6.91175],[100.1799,6.91334],[100.18584,6.91244],[100.19876,6.90738],[100.20087,6.8993],[100.20716,6.89576],[100.20787,6.90843],[100.21067,6.91371],[100.21388,6.9152],[100.21439,6.91802],[100.20915,6.91921],[100.20213,6.92397],[100.19088,6.94724],[100.19449,6.9644],[100.19212,6.96766],[100.19473,6.97638],[100.19671,6.97914],[100.19919,6.97959],[100.20077,6.98366],[100.20517,6.98434],[100.21428,6.9912],[100.2308,6.99565],[100.2346,7.00004],[100.2367,7.00021],[100.23646,7.00521],[100.23986,7.00458],[100.241,7.00657],[100.2414,7.00508],[100.24401,7.00917],[100.24768,7.01137],[100.24847,7.01056],[100.25259,7.01527],[100.25451,7.01183],[100.25846,7.01358],[100.26053,7.01764],[100.26317,7.01857],[100.26582,7.01586],[100.27312,7.016],[100.27721,7.02227],[100.2859,7.02384],[100.29253,7.03173],[100.30046,7.03253],[100.30296,7.03941],[100.30266,7.05077],[100.30786,7.05459],[100.3086,7.05817],[100.31827,7.06036],[100.31691,7.07306],[100.31952,7.07492],[100.31909,7.07729],[100.32098,7.0776],[100.3207,7.08146],[100.32955,7.08221],[100.3299,7.08637],[100.33509,7.09252],[100.33371,7.10301],[100.3382,7.10491],[100.33952,7.11428],[100.34674,7.11693],[100.34999,7.12336],[100.34899,7.1286],[100.34527,7.12585],[100.34145,7.12822],[100.34187,7.12978],[100.33797,7.12925],[100.33686,7.1315],[100.33952,7.13542],[100.33825,7.13702],[100.33373,7.13671],[100.33203,7.13915],[100.32931,7.13881],[100.32779,7.14334],[100.32481,7.14077],[100.32887,7.14857],[100.32725,7.16316],[100.32964,7.16943],[100.32858,7.17505],[100.33049,7.17706],[100.33144,7.18548],[100.33731,7.1877],[100.33889,7.19004],[100.33939,7.19338],[100.33613,7.19729],[100.34026,7.20603],[100.33962,7.20948],[100.31673,7.23135]]]},"properties":{"name":"อำเภอรัตภูมิ","name_en":"Rattaphum District","admin_level":"6"}},{"type":"Feature","geometry":{"type":"Polygon","coordinates":[[[100.81088,6.64712],[100.81232,6.64716],[100.81852,6.65576],[100.81883,6.6582],[100.82796,6.66216],[100.8288,6.65998],[100.83164,6.66034],[100.83431,6.65794],[100.84128,6.66159],[100.84762,6.66057],[100.85344,6.66235],[100.85494,6.66433],[100.85926,6.66473],[100.8627,6.66372],[100.86657,6.6598],[100.8683,6.65068],[100.86553,6.64673],[100.87048,6.64236],[100.86724,6.63826],[100.86995,6.63693],[100.86952,6.63505],[100.872,6.63226],[100.87523,6.63299],[100.87729,6.64205],[100.87979,6.64551],[100.88641,6.64304],[100.89461,6.63527],[100.89829,6.63604],[100.90139,6.63456],[100.90402,6.63715],[100.90711,6.63767],[100.91038,6.63563],[100.91416,6.63553],[100.91764,6.64314],[100.9216,6.64408],[100.91741,6.65399],[100.92083,6.66004],[100.9271,6.66036],[100.93062,6.65701],[100.93576,6.65756],[100.94643,6.66757],[100.94926,6.66846],[100.95028,6.67151],[100.95502,6.67409],[100.95223,6.68126],[100.95401,6.69031],[100.95239,6.6919],[100.9562,6.69337],[100.95823,6.69721],[100.95648,6.69846],[100.95643,6.70112],[100.95439,6.70165],[100.95643,6.7025],[100.95454,6.70335],[100.95491,6.70651],[100.95662,6.70601],[100.95603,6.70799],[100.95846,6.70873],[100.96058,6.70775],[100.96235,6.71039],[100.96425,6.7074],[100.96574,6.71128],[100.96579,6.70886],[100.96943,6.70961],[100.97137,6.70586],[100.96914,6.70385],[100.9698,6.70219],[100.97008,6.70378],[100.97147,6.70357],[100.97267,6.70181],[100.97169,6.70052],[100.97618,6.69842],[100.99333,6.69979],[100.99553,6.69878],[100.99415,6.69645],[100.99655,6.69495],[101.0077,6.69266],[101.01715,6.69493],[101.03405,6.69278],[101.049,6.6807],[101.05696,6.67753],[101.05507,6.67169],[101.04887,6.66336],[101.06185,6.65582],[101.0689,6.64419],[101.0714,6.64442],[101.07414,6.64182],[101.08804,6.64264],[101.0973,6.63956],[101.10229,6.63633],[101.10516,6.62954],[101.09082,6.61466],[101.08949,6.60913],[101.09183,6.60412],[101.08704,6.60115],[101.08508,6.59425],[101.08709,6.57345],[101.08398,6.57066],[101.08074,6.55477],[101.07316,6.55177],[101.06925,6.54402],[101.06039,6.54182],[101.04314,6.54163],[101.04442,6.5251],[101.03871,6.52188],[101.03514,6.51534],[101.03757,6.51485],[101.04263,6.50461],[101.04177,6.49395],[101.04504,6.49094],[101.04437,6.48686],[101.03375,6.48569],[101.02343,6.48202],[101.02181,6.48258],[101.02209,6.48657],[101.02073,6.48779],[100.99927,6.47906],[100.99075,6.48513],[100.98517,6.48437],[100.97693,6.48633],[100.97462,6.48374],[100.9763,6.48198],[100.97548,6.47949],[100.97197,6.47616],[100.97303,6.46797],[100.96872,6.46641],[100.96522,6.46887],[100.96387,6.46814],[100.96116,6.46095],[100.96036,6.45081],[100.95571,6.45145],[100.95383,6.45005],[100.95267,6.45139],[100.95306,6.44529],[100.94897,6.44241],[100.94223,6.44445],[100.93813,6.44303],[100.93588,6.44613],[100.93346,6.4451],[100.9302,6.43602],[100.92217,6.42656],[100.92214,6.4226],[100.91988,6.41823],[100.9199,6.40995],[100.91816,6.40852],[100.92027,6.40066],[100.91847,6.40096],[100.91719,6.39883],[100.91854,6.39312],[100.92247,6.39076],[100.92015,6.38891],[100.91949,6.38333],[100.92271,6.38249],[100.9213,6.3785],[100.9221,6.37505],[100.92644,6.37208],[100.92678,6.37081],[100.92497,6.37064],[100.92756,6.36655],[100.92531,6.35985],[100.92634,6.35436],[100.92004,6.35465],[100.92051,6.35138],[100.92273,6.34934],[100.92036,6.34848],[100.92015,6.34472],[100.92239,6.34025],[100.92658,6.34023],[100.92523,6.33652],[100.92907,6.33131],[100.9254,6.32884],[100.92921,6.32837],[100.92915,6.32567],[100.92483,6.32681],[100.92443,6.32493],[100.9263,6.32216],[100.92935,6.32252],[100.92986,6.32099],[100.92657,6.3188],[100.92369,6.31891],[100.92341,6.32081],[100.91996,6.32013],[100.91723,6.31801],[100.91505,6.31121],[100.9124,6.31119],[100.91386,6.30646],[100.91071,6.30571],[100.91225,6.30344],[100.89768,6.30367],[100.89051,6.29936],[100.88844,6.2956],[100.88394,6.29652],[100.87952,6.29474],[100.87825,6.29636],[100.87059,6.29369],[100.8665,6.29485],[100.86499,6.29745],[100.86201,6.29339],[100.85991,6.29426],[100.84955,6.29013],[100.84112,6.30024],[100.84277,6.30793],[100.84752,6.30956],[100.84992,6.30872],[100.84887,6.31535],[100.8404,6.3226],[100.84069,6.32723],[100.83559,6.33895],[100.82873,6.34744],[100.82776,6.35229],[100.82181,6.35648],[100.82266,6.36257],[100.82073,6.36836],[100.82216,6.37072],[100.82117,6.37434],[100.82428,6.38441],[100.8226,6.38582],[100.82126,6.39916],[100.82392,6.40687],[100.82061,6.41759],[100.81601,6.42332],[100.81674,6.42706],[100.8141,6.43068],[100.81542,6.43296],[100.81299,6.43631],[100.81258,6.44219],[100.81053,6.44451],[100.80771,6.44381],[100.79153,6.44833],[100.78728,6.4545],[100.78177,6.45452],[100.78239,6.45642],[100.7765,6.46305],[100.76896,6.45531],[100.75944,6.45723],[100.75774,6.45574],[100.75355,6.45747],[100.74393,6.47037],[100.74269,6.484],[100.73918,6.48911],[100.73918,6.49182],[100.74359,6.49833],[100.74049,6.50746],[100.74905,6.51452],[100.74842,6.53072],[100.75059,6.53449],[100.75043,6.53766],[100.76025,6.54167],[100.75741,6.54327],[100.75666,6.5461],[100.75025,6.54764],[100.75863,6.55472],[100.76177,6.55514],[100.76634,6.56011],[100.77168,6.55998],[100.77387,6.55828],[100.77744,6.55994],[100.78052,6.56347],[100.78026,6.56981],[100.78294,6.57454],[100.78204,6.57702],[100.78629,6.57774],[100.79003,6.57522],[100.79183,6.57912],[100.78851,6.5924],[100.77569,6.59639],[100.77584,6.60353],[100.76621,6.61487],[100.76961,6.62427],[100.76863,6.63009],[100.77861,6.63791],[100.78786,6.63215],[100.79066,6.62808],[100.79596,6.62822],[100.79765,6.62979],[100.79536,6.63312],[100.79634,6.63635],[100.79878,6.6381],[100.80694,6.63896],[100.81078,6.64639],[100.81088,6.64712]]]},"properties":{"name":"อำเภอสะบ้าย้อย","name_en":"Saba Yoi District","admin_level":"6"}},{"type":"Feature","geometry":{"type":"Polygon","coordinates":[[[100.30437,6.673],[100.30588,6.66845],[100.30892,6.66663],[100.31289,6.66622],[100.31575,6.66777],[100.31886,6.66437],[100.32509,6.66547],[100.32761,6.66386],[100.32373,6.65683],[100.31947,6.65399],[100.3223,6.64907],[100.32185,6.64205],[100.31717,6.63985],[100.31617,6.6366],[100.31655,6.63482],[100.32127,6.63568],[100.32215,6.63007],[100.32413,6.62755],[100.32351,6.62512],[100.32603,6.62139],[100.31611,6.61332],[100.31151,6.61278],[100.30992,6.61085],[100.30586,6.61111],[100.30518,6.60523],[100.30714,6.60579],[100.31235,6.60317],[100.31582,6.60416],[100.32021,6.59171],[100.32516,6.58882],[100.32523,6.5858],[100.32844,6.58424],[100.33481,6.58499],[100.33662,6.58361],[100.33588,6.58235],[100.34158,6.58022],[100.34153,6.57515],[100.34519,6.57119],[100.35151,6.57294],[100.35378,6.56867],[100.35351,6.56139],[100.35553,6.56163],[100.35647,6.55884],[100.36016,6.55696],[100.3582,6.55381],[100.35964,6.54806],[100.36478,6.54368],[100.36648,6.53967],[100.36895,6.5391],[100.3733,6.54511],[100.38215,6.54162],[100.38423,6.53847],[100.38706,6.53895],[100.3882,6.53495],[100.39738,6.5339],[100.40212,6.53635],[100.40301,6.52987],[100.40815,6.52877],[100.41122,6.52269],[100.41608,6.52333],[100.41755,6.51907],[100.4233,6.51756],[100.42815,6.52281],[100.43075,6.5239],[100.43263,6.52252],[100.43951,6.52706],[100.45368,6.52677],[100.45675,6.53184],[100.46024,6.53115],[100.46236,6.5252],[100.46736,6.52461],[100.46734,6.52163],[100.47047,6.52042],[100.47701,6.52396],[100.48672,6.52241],[100.49021,6.52547],[100.4962,6.52128],[100.49577,6.51811],[100.49273,6.51664],[100.49382,6.50864],[100.49735,6.50529],[100.49967,6.50677],[100.5019,6.49954],[100.50557,6.49866],[100.50795,6.50055],[100.51161,6.49227],[100.51518,6.49324],[100.51882,6.48856],[100.52398,6.4904],[100.5255,6.48733],[100.532,6.48983],[100.5369,6.48684],[100.54211,6.49118],[100.54835,6.48447],[100.55281,6.49144],[100.558,6.49269],[100.56252,6.49596],[100.57301,6.48271],[100.58495,6.47771],[100.58916,6.47918],[100.5952,6.47738],[100.60226,6.46836],[100.60455,6.47177],[100.60809,6.47208],[100.6101,6.48278],[100.60737,6.49072],[100.60772,6.494],[100.61142,6.49857],[100.60992,6.50042],[100.61126,6.50524],[100.60759,6.50885],[100.61224,6.51523],[100.60871,6.51823],[100.60825,6.52349],[100.60265,6.52812],[100.60351,6.53383],[100.59813,6.53686],[100.5994,6.54318],[100.59398,6.54895],[100.59352,6.56412],[100.59199,6.56462],[100.58683,6.5612],[100.5796,6.56216],[100.57716,6.56677],[100.57117,6.57047],[100.56851,6.58164],[100.5642,6.58816],[100.56508,6.59492],[100.569,6.59648],[100.56517,6.60258],[100.5718,6.61276],[100.56903,6.62025],[100.57236,6.6266],[100.57219,6.63028],[100.57014,6.63324],[100.56609,6.65122],[100.56701,6.65879],[100.57113,6.6654],[100.56904,6.67309],[100.56509,6.67533],[100.56329,6.67931],[100.5616,6.68477],[100.5626,6.68984],[100.55351,6.69761],[100.5536,6.70192],[100.56037,6.71161],[100.56092,6.71589],[100.55343,6.71796],[100.54882,6.7232],[100.54502,6.72475],[100.55418,6.73607],[100.55367,6.74054],[100.55117,6.74255],[100.55255,6.75044],[100.55471,6.75198],[100.55469,6.7579],[100.56024,6.75818],[100.56067,6.75973],[100.56573,6.76128],[100.57021,6.77311],[100.57844,6.77637],[100.5792,6.78035],[100.58192,6.78361],[100.58177,6.78742],[100.5669,6.78795],[100.55725,6.79604],[100.55071,6.7976],[100.54639,6.79452],[100.54334,6.79512],[100.53663,6.80336],[100.5199,6.81077],[100.48347,6.81092],[100.48308,6.81343],[100.47192,6.81379],[100.4718,6.81062],[100.46916,6.81568],[100.46612,6.81643],[100.46519,6.81907],[100.46676,6.82021],[100.46423,6.82077],[100.45933,6.82577],[100.45928,6.82788],[100.46226,6.83031],[100.4596,6.83446],[100.45427,6.83631],[100.44719,6.83538],[100.43982,6.84199],[100.42798,6.83668],[100.42506,6.83709],[100.41352,6.84644],[100.40617,6.84372],[100.40545,6.83819],[100.40224,6.83452],[100.40151,6.82504],[100.39741,6.82077],[100.39537,6.82045],[100.39287,6.82575],[100.38574,6.82836],[100.38486,6.82468],[100.38186,6.82356],[100.38038,6.81776],[100.37033,6.81714],[100.37008,6.81308],[100.36768,6.80962],[100.35751,6.80912],[100.35513,6.80191],[100.35752,6.80047],[100.35749,6.7967],[100.35487,6.79228],[100.35503,6.7833],[100.35302,6.78066],[100.34689,6.77918],[100.34536,6.78119],[100.34233,6.78024],[100.34125,6.78128],[100.34251,6.78237],[100.33827,6.78316],[100.33603,6.78572],[100.33677,6.78773],[100.33484,6.78796],[100.33425,6.79001],[100.33007,6.78753],[100.32093,6.79123],[100.32177,6.78987],[100.32007,6.78845],[100.3162,6.78795],[100.31402,6.78907],[100.31368,6.79111],[100.30873,6.7925],[100.30657,6.78995],[100.30775,6.78827],[100.30377,6.78676],[100.29622,6.78993],[100.29209,6.78542],[100.27828,6.78695],[100.27599,6.78544],[100.27629,6.78328],[100.26945,6.78091],[100.26591,6.78474],[100.26291,6.78028],[100.26038,6.78005],[100.26014,6.77742],[100.24941,6.78461],[100.24522,6.78622],[100.24453,6.78425],[100.24014,6.78695],[100.23703,6.78686],[100.23583,6.79106],[100.23748,6.79321],[100.23579,6.79436],[100.23663,6.79691],[100.23365,6.79787],[100.23542,6.79946],[100.23055,6.80023],[100.22846,6.80347],[100.22889,6.81154],[100.22697,6.81735],[100.21806,6.82415],[100.21281,6.83184],[100.20997,6.83296],[100.2059,6.84182],[100.20392,6.84119],[100.19931,6.8367],[100.19532,6.8274],[100.19629,6.81473],[100.19129,6.81005],[100.19098,6.80302],[100.19166,6.79937],[100.19566,6.79556],[100.19285,6.78843],[100.19895,6.78339],[100.19909,6.7767],[100.21276,6.76875],[100.21584,6.75832],[100.21354,6.75296],[100.20735,6.74862],[100.20594,6.73789],[100.20681,6.73006],[100.20434,6.72355],[100.20559,6.72096],[100.21473,6.71884],[100.21567,6.71294],[100.21882,6.70887],[100.21837,6.70285],[100.22406,6.6971],[100.22697,6.69611],[100.22876,6.6934],[100.2317,6.69491],[100.23795,6.69214],[100.24252,6.69271],[100.2438,6.69589],[100.2468,6.69559],[100.24912,6.69746],[100.25082,6.70274],[100.25329,6.70377],[100.25281,6.70858],[100.25664,6.70821],[100.2575,6.71137],[100.26153,6.70725],[100.26499,6.69892],[100.27221,6.70393],[100.27761,6.70415],[100.27931,6.70684],[100.28426,6.70868],[100.28696,6.70758],[100.29074,6.70972],[100.29511,6.70381],[100.2914,6.6991],[100.29018,6.68876],[100.29426,6.67975],[100.29729,6.67791],[100.30185,6.67987],[100.30443,6.67339],[100.30437,6.673]]]},"properties":{"name":"อำเภอสะเดา","name_en":"Sadao District","admin_level":"6"}},{"type":"Feature","geometry":{"type":"Polygon","coordinates":[[[100.48112,7.37629],[100.44774,7.36649],[100.44557,7.37261],[100.43124,7.3694],[100.42505,7.36469],[100.40607,7.3618],[100.40979,7.3509],[100.41066,7.33972],[100.41475,7.32926],[100.4287,7.30894],[100.42574,7.29322],[100.42782,7.28625],[100.42736,7.28266],[100.42427,7.27939],[100.41126,7.27424],[100.40864,7.26536],[100.42401,7.26115],[100.43273,7.25298],[100.43941,7.25035],[100.46221,7.18704],[100.54711,7.18892],[100.57265,7.16882],[100.58175,7.18235],[100.58479,7.19763],[100.57542,7.2232],[100.57308,7.22272],[100.56897,7.22645],[100.57511,7.23013],[100.57014,7.23033],[100.56772,7.227],[100.56524,7.22895],[100.56256,7.23411],[100.56533,7.23505],[100.56499,7.2361],[100.56242,7.23503],[100.55756,7.24782],[100.55355,7.25059],[100.55847,7.25035],[100.55505,7.25014],[100.55113,7.25286],[100.5296,7.28105],[100.508,7.31817],[100.48112,7.37629],[100.58762,7.26213],[100.59064,7.26401],[100.55755,7.24854],[100.56532,7.23761],[100.56355,7.23795],[100.56,7.24339],[100.55902,7.24272],[100.56424,7.23666],[100.56985,7.2378],[100.57545,7.23329],[100.57912,7.23531],[100.57491,7.23353],[100.56751,7.23937],[100.56785,7.23837],[100.56531,7.2378],[100.56391,7.23861],[100.55902,7.24758],[100.55932,7.25373],[100.55755,7.24854],[100.48112,7.37629]]]},"properties":{"name":"อำเภอสิงหนคร","name_en":"Singhanakhon District","admin_level":"6"}},{"type":"Feature","geometry":{"type":"Polygon","coordinates":[[[100.81892,6.95905],[100.819,6.95264],[100.82712,6.94977],[100.81986,6.94075],[100.8162,6.94219],[100.81785,6.94646],[100.8165,6.94797],[100.81129,6.94806],[100.80704,6.95117],[100.80284,6.94817],[100.80812,6.94139],[100.80841,6.9337],[100.81257,6.93249],[100.81616,6.92746],[100.81616,6.92509],[100.81352,6.91849],[100.81467,6.91457],[100.80958,6.90975],[100.81142,6.90716],[100.80924,6.90319],[100.81004,6.90028],[100.80878,6.90166],[100.80369,6.89429],[100.79881,6.89611],[100.79389,6.88973],[100.79685,6.87078],[100.79444,6.86288],[100.7938,6.85186],[100.79655,6.84203],[100.80082,6.83722],[100.81506,6.83261],[100.81694,6.82592],[100.81563,6.8227],[100.81856,6.81988],[100.81883,6.81682],[100.82323,6.81338],[100.82234,6.81119],[100.81988,6.81059],[100.82024,6.80577],[100.81674,6.80153],[100.81604,6.7973],[100.81327,6.79584],[100.81546,6.78863],[100.8126,6.78417],[100.80886,6.7819],[100.81264,6.7779],[100.81269,6.7756],[100.81012,6.77186],[100.80472,6.77127],[100.80138,6.76903],[100.80164,6.76559],[100.79659,6.76293],[100.79809,6.7601],[100.79587,6.75808],[100.79547,6.75503],[100.79943,6.74882],[100.80001,6.74293],[100.80662,6.73666],[100.81068,6.72742],[100.81501,6.72604],[100.82378,6.71843],[100.83011,6.71752],[100.83133,6.71524],[100.81929,6.70208],[100.82504,6.6929],[100.81313,6.67876],[100.81722,6.67321],[100.81789,6.66906],[100.81599,6.66297],[100.8057,6.65858],[100.80553,6.65473],[100.81174,6.6468],[100.81852,6.65576],[100.81883,6.6582],[100.82796,6.66216],[100.8288,6.65998],[100.83164,6.66034],[100.83431,6.65794],[100.84179,6.66173],[100.84762,6.66057],[100.85344,6.66235],[100.85494,6.66433],[100.86064,6.66446],[100.86657,6.6598],[100.8683,6.65068],[100.86553,6.64673],[100.87054,6.64202],[100.86724,6.63826],[100.86986,6.63705],[100.86952,6.63505],[100.87291,6.63197],[100.87523,6.63299],[100.87729,6.64205],[100.87979,6.64551],[100.88641,6.64304],[100.89461,6.63527],[100.89829,6.63604],[100.90139,6.63456],[100.90402,6.63715],[100.90711,6.63767],[100.91038,6.63563],[100.91487,6.63596],[100.91764,6.64314],[100.9216,6.64408],[100.91741,6.65399],[100.92083,6.66004],[100.9271,6.66036],[100.93062,6.65701],[100.93576,6.65756],[100.94643,6.66757],[100.94926,6.66846],[100.95028,6.67151],[100.95502,6.67409],[100.95223,6.68126],[100.95401,6.69031],[100.95239,6.6919],[100.9562,6.69337],[100.95823,6.69721],[100.95648,6.69846],[100.95643,6.70112],[100.95439,6.70165],[100.95643,6.7025],[100.95454,6.70335],[100.95491,6.70651],[100.95662,6.70601],[100.95603,6.70799],[100.95846,6.70873],[100.96058,6.70775],[100.96235,6.71039],[100.96425,6.7074],[100.96567,6.71127],[100.96579,6.70886],[100.96943,6.70961],[100.97137,6.70586],[100.96914,6.70385],[100.9698,6.70219],[100.97008,6.70378],[100.97147,6.70357],[100.97267,6.70181],[100.97169,6.70052],[100.97618,6.69842],[100.99333,6.69979],[100.99553,6.69878],[100.99415,6.69645],[100.99655,6.69495],[101.0077,6.69266],[101.01715,6.69493],[101.03405,6.69278],[101.04933,6.68051],[101.05696,6.67753],[101.06028,6.67915],[101.06362,6.68451],[101.0636,6.68713],[101.05972,6.68825],[101.06082,6.69587],[101.06257,6.69838],[101.06063,6.70564],[101.05792,6.70687],[101.05739,6.71254],[101.04338,6.70979],[101.03929,6.70636],[101.03958,6.71913],[101.03272,6.71811],[101.02501,6.72003],[101.01964,6.72268],[101.01739,6.7258],[101.02335,6.72956],[101.02281,6.73273],[101.025,6.73483],[101.03014,6.7373],[101.03185,6.74239],[101.0321,6.7454],[101.02894,6.74877],[101.02744,6.7541],[101.0327,6.75938],[101.02724,6.76795],[101.02787,6.77303],[101.02968,6.77525],[101.02857,6.77953],[101.03503,6.78296],[101.0345,6.78469],[101.03907,6.788],[101.04187,6.79531],[101.05437,6.80149],[101.04429,6.80875],[101.04273,6.81223],[101.04286,6.82839],[101.05053,6.83618],[101.04741,6.83871],[101.04485,6.83715],[101.04318,6.8385],[101.04287,6.84189],[101.04566,6.84462],[101.04355,6.84742],[101.04818,6.84691],[101.05751,6.85153],[101.06265,6.85129],[101.06614,6.858],[101.05865,6.85821],[101.0541,6.85508],[101.04253,6.85269],[101.04114,6.85117],[101.0069,6.8561],[100.98996,6.86121],[100.96727,6.87398],[100.96729,6.87746],[100.9672,6.87397],[100.9658,6.87397],[100.96582,6.87746],[100.96463,6.87443],[100.96045,6.8772],[100.95299,6.87892],[100.92674,6.89514],[100.89399,6.92111],[100.84889,6.96217],[100.84676,6.95976],[100.83885,6.96073],[100.83415,6.95424],[100.83165,6.9532],[100.82375,6.95555],[100.81961,6.95904],[100.81892,6.95905]]]},"properties":{"name":"อำเภอเทพา","name_en":"Thepha District","admin_level":"6"}},{"type":"Feature","geometry":{"type":"Polygon","coordinates":[[[100.19647,7.38222],[100.21173,7.36154],[100.22815,7.35099],[100.24459,7.32891],[100.25699,7.30863],[100.25329,7.30606],[100.25259,7.30184],[100.24946,7.3005],[100.24156,7.30126],[100.23953,7.29875],[100.23662,7.29836],[100.23542,7.29618],[100.23628,7.28858],[100.23473,7.28815],[100.23353,7.29309],[100.2314,7.29458],[100.22714,7.29286],[100.22705,7.28831],[100.22088,7.29059],[100.21558,7.28972],[100.21566,7.27906],[100.21186,7.27728],[100.2124,7.27511],[100.20819,7.27135],[100.20375,7.27137],[100.20117,7.26934],[100.20114,7.26278],[100.19774,7.25975],[100.19792,7.25727],[100.20528,7.25448],[100.2098,7.25893],[100.21302,7.25953],[100.21703,7.25907],[100.21697,7.25599],[100.22101,7.25549],[100.23552,7.26214],[100.23636,7.25093],[100.23798,7.24839],[100.24064,7.24908],[100.24313,7.24357],[100.24677,7.24296],[100.24759,7.2365],[100.25178,7.2323],[100.25927,7.23571],[100.26056,7.24236],[100.26491,7.24494],[100.268,7.2437],[100.27116,7.24503],[100.27825,7.24086],[100.28553,7.24203],[100.29264,7.24009],[100.29817,7.24227],[100.30233,7.24205],[100.30656,7.24663],[100.31673,7.23135],[100.31442,7.22957],[100.31468,7.22661],[100.31142,7.22206],[100.31203,7.2204],[100.30461,7.20861],[100.29289,7.21136],[100.27998,7.21091],[100.27363,7.20769],[100.2715,7.20812],[100.26929,7.20404],[100.2615,7.20127],[100.25781,7.19693],[100.25022,7.19945],[100.24131,7.19248],[100.23593,7.19196],[100.23272,7.19417],[100.22552,7.19251],[100.22396,7.19382],[100.22049,7.19097],[100.2157,7.18972],[100.21282,7.1859],[100.2086,7.18688],[100.20628,7.18372],[100.20125,7.18445],[100.19772,7.18095],[100.19521,7.18262],[100.19039,7.1805],[100.18725,7.17673],[100.18498,7.17785],[100.18387,7.17582],[100.18315,7.177],[100.17983,7.17618],[100.17757,7.1742],[100.17521,7.17536],[100.17454,7.17304],[100.17235,7.1723],[100.17026,7.16463],[100.16821,7.16503],[100.16801,7.16283],[100.16605,7.16286],[100.16804,7.1601],[100.16477,7.1588],[100.16581,7.15587],[100.16195,7.15536],[100.16005,7.1515],[100.15791,7.15163],[100.1562,7.14869],[100.1524,7.15286],[100.14779,7.14896],[100.14526,7.15031],[100.14372,7.14948],[100.14156,7.15215],[100.13615,7.15227],[100.13409,7.15494],[100.13404,7.15879],[100.12895,7.1592],[100.1237,7.16336],[100.12506,7.16433],[100.12362,7.16556],[100.12171,7.16476],[100.12059,7.16647],[100.11964,7.16453],[100.11524,7.1668],[100.11114,7.16579],[100.10557,7.16326],[100.10511,7.16089],[100.09996,7.15552],[100.09841,7.15589],[100.09617,7.15155],[100.08374,7.14622],[100.07504,7.14716],[100.06844,7.13862],[100.0625,7.13733],[100.06352,7.13487],[100.06007,7.12626],[100.06099,7.12381],[100.06774,7.11896],[100.06757,7.11135],[100.05722,7.10758],[100.05226,7.11002],[100.04911,7.10759],[100.04539,7.109],[100.03825,7.1087],[100.03694,7.10141],[100.03424,7.10074],[100.03089,7.09292],[100.02823,7.09033],[100.02531,7.09261],[100.02664,7.09506],[100.02597,7.10283],[100.01294,7.10934],[100.01079,7.10883],[100.00573,7.11148],[100.00397,7.11063],[100.00264,7.11352],[100.00031,7.11211],[99.99,7.12488],[99.98651,7.13635],[99.9802,7.1421],[99.97875,7.14749],[99.97188,7.15019],[99.97079,7.15363],[99.97185,7.15694],[99.96938,7.16585],[99.96261,7.16832],[99.96083,7.17503],[99.9587,7.17706],[99.9607,7.18156],[99.95673,7.18871],[99.95971,7.19522],[99.95809,7.19945],[99.9684,7.19895],[99.97257,7.21133],[99.97578,7.21197],[99.98153,7.21637],[99.98892,7.21464],[99.9932,7.21183],[99.99559,7.2122],[99.99938,7.20763],[100.00857,7.21393],[100.01167,7.21032],[100.02705,7.20834],[100.03271,7.20278],[100.04945,7.19856],[100.05333,7.20608],[100.05102,7.21672],[100.05702,7.21997],[100.057,7.22289],[100.0637,7.2239],[100.06578,7.22709],[100.06842,7.22726],[100.06904,7.23056],[100.07626,7.23175],[100.07962,7.23515],[100.08406,7.23597],[100.08532,7.23809],[100.08449,7.2423],[100.0865,7.24179],[100.0931,7.24872],[100.09211,7.25423],[100.09424,7.25601],[100.09318,7.25855],[100.09503,7.26528],[100.10498,7.2673],[100.10729,7.26412],[100.11078,7.26326],[100.11291,7.26541],[100.12384,7.26916],[100.12287,7.2746],[100.11998,7.2767],[100.12287,7.28058],[100.12334,7.2843],[100.11875,7.28595],[100.11737,7.29051],[100.11332,7.2919],[100.11228,7.29376],[100.11643,7.29653],[100.12293,7.29745],[100.12311,7.3011],[100.11737,7.31124],[100.11662,7.31705],[100.12042,7.32201],[100.12181,7.32716],[100.1292,7.33508],[100.12948,7.34456],[100.13332,7.34829],[100.13631,7.35451],[100.13479,7.3589],[100.13782,7.35517],[100.14803,7.35488],[100.15078,7.35268],[100.15608,7.35254],[100.15604,7.3549],[100.15832,7.35543],[100.15826,7.35684],[100.16357,7.35842],[100.16252,7.36151],[100.16634,7.36257],[100.1687,7.36814],[100.17459,7.37033],[100.17907,7.3698],[100.18089,7.37719],[100.19162,7.38007],[100.19647,7.38222]]]},"properties":{"name":"อำเภอป่าบอน","name_en":"Pa Bon District","admin_level":"6"}},{"type":"Feature","geometry":{"type":"Polygon","coordinates":[[[100.27307,7.49656],[100.29601,7.49542],[100.30916,7.50481],[100.35568,7.52782],[100.38647,7.51185],[100.38771,7.4971],[100.38258,7.42499],[100.38613,7.41637],[100.3962,7.40545],[100.3989,7.40021],[100.4014,7.37699],[100.40979,7.3509],[100.41066,7.33972],[100.42017,7.31978],[100.42855,7.30993],[100.42574,7.29322],[100.42782,7.28625],[100.42736,7.28266],[100.42427,7.27939],[100.41145,7.2744],[100.40864,7.26536],[100.40215,7.26252],[100.39914,7.26356],[100.39511,7.26924],[100.38823,7.2731],[100.38343,7.27858],[100.38483,7.28949],[100.37884,7.30028],[100.37976,7.30751],[100.3785,7.31325],[100.37526,7.31169],[100.37392,7.30434],[100.36249,7.30266],[100.35876,7.30064],[100.35657,7.29647],[100.35682,7.29305],[100.36144,7.28071],[100.35954,7.2779],[100.34835,7.27759],[100.34542,7.27373],[100.34158,7.27534],[100.33935,7.26046],[100.34152,7.25089],[100.34072,7.24818],[100.33323,7.24348],[100.33428,7.23912],[100.32882,7.2362],[100.3246,7.23603],[100.31673,7.23135],[100.30656,7.24663],[100.30233,7.24205],[100.29817,7.24227],[100.29264,7.24009],[100.28553,7.24203],[100.27825,7.24086],[100.27116,7.24503],[100.268,7.2437],[100.26491,7.24494],[100.26056,7.24236],[100.25927,7.23571],[100.25052,7.23246],[100.24759,7.2365],[100.24677,7.24296],[100.24313,7.24357],[100.24064,7.24908],[100.23798,7.24839],[100.23636,7.25093],[100.23552,7.26214],[100.22101,7.25549],[100.21697,7.25599],[100.21703,7.25907],[100.21302,7.25953],[100.2098,7.25893],[100.20528,7.25448],[100.19792,7.25727],[100.19774,7.25975],[100.20114,7.26278],[100.20117,7.26934],[100.20375,7.27137],[100.20819,7.27135],[100.2124,7.27511],[100.21186,7.27728],[100.21566,7.27906],[100.21558,7.28972],[100.22088,7.29059],[100.22705,7.28831],[100.22714,7.29286],[100.2314,7.29458],[100.23353,7.29309],[100.23473,7.28815],[100.23628,7.28858],[100.23542,7.29618],[100.23662,7.29836],[100.23953,7.29875],[100.24156,7.30126],[100.24946,7.3005],[100.25259,7.30184],[100.25329,7.30606],[100.25699,7.30863],[100.24459,7.32891],[100.22864,7.35038],[100.21173,7.36154],[100.18924,7.39278],[100.19924,7.39718],[100.2211,7.40251],[100.23005,7.41414],[100.24693,7.41325],[100.25859,7.41723],[100.28163,7.43733],[100.27618,7.4784],[100.27307,7.49656]]]},"properties":{"name":"อำเภอปากพะยูน","name_en":"Pak Phayun District","admin_level":"6"}},{"type":"Feature","geometry":{"type":"Polygon","coordinates":[[[100.45263,7.02798],[100.46215,7.0232],[100.46548,7.01812],[100.46514,7.02564],[100.47949,7.03505],[100.47895,7.0328],[100.48182,7.03113],[100.48044,7.02909],[100.4823,7.02871],[100.48075,7.02686],[100.48253,7.02676],[100.48144,7.02568],[100.484,7.02152],[100.49725,7.02243],[100.50023,7.0302],[100.50265,7.0483],[100.50619,7.04746],[100.50403,7.03299],[100.50236,7.03291],[100.49789,7.01933],[100.49936,7.01855],[100.49355,7.00283],[100.48454,6.98732],[100.47506,6.99091],[100.47224,6.99346],[100.46978,6.98795],[100.46133,6.98725],[100.4632,6.99175],[100.45949,6.99971],[100.45899,6.99672],[100.45772,6.99895],[100.44852,6.99496],[100.43678,6.995],[100.42879,6.9922],[100.42994,6.99661],[100.43449,6.99937],[100.4437,7.00186],[100.44912,7.00111],[100.45289,7.00362],[100.45086,7.00876],[100.45284,7.01165],[100.4503,7.01219],[100.45215,7.01549],[100.45233,7.02091],[100.45026,7.02355],[100.4525,7.02775],[100.45263,7.02798]]]},"properties":{"name":"เทศบาลนครหาดใหญ่","name_en":"Hatyai city municipality","admin_level":"7"}},{"type":"Feature","geometry":{"type":"Polygon","coordinates":[[[100.55755,7.24854],[100.56532,7.23761],[100.56355,7.23795],[100.56,7.24339],[100.55902,7.24272],[100.56424,7.23666],[100.56985,7.2378],[100.57545,7.23329],[100.57913,7.23528],[100.57491,7.23353],[100.56751,7.23937],[100.56785,7.23837],[100.56454,7.23806],[100.55902,7.24758],[100.55934,7.2537],[100.5575,7.2488],[100.56648,7.1888],[100.57675,7.191],[100.58148,7.19605],[100.57809,7.19914],[100.57721,7.20435],[100.57459,7.20606],[100.57282,7.21032],[100.57436,7.21296],[100.57452,7.22238],[100.56897,7.22645],[100.57511,7.23013],[100.57014,7.23033],[100.56772,7.227],[100.56524,7.22895],[100.56256,7.23411],[100.56533,7.23505],[100.56499,7.2361],[100.56242,7.23503],[100.55756,7.24782],[100.55355,7.25059],[100.55847,7.25035],[100.55562,7.24996],[100.55184,7.25219],[100.5386,7.268],[100.5213,7.26503],[100.51424,7.25642],[100.52193,7.23726],[100.5105,7.23275],[100.52115,7.2241],[100.52425,7.224],[100.54212,7.20766],[100.54625,7.202],[100.54719,7.1959],[100.54942,7.19525],[100.552,7.19825],[100.557,7.19825],[100.56457,7.19364],[100.56648,7.1888],[100.55755,7.24854]]]},"properties":{"name":"เทศบาลเมืองสิงหนคร","name_en":"Singhanakhon Town Municipality","admin_level":"7"}}]}