{
  "type": "FeatureCollection",
  "name": "U-Tapao Basin Boundary",
  "crs": {
    "type": "name",
    "properties": {
      "name": "urn:ogc:def:crs:OGC:1.3:CRS84"
    }
  },
  "features": [
    {
      "type": "Feature",
      "properties": {
        "HYBAS_ID": 4070019470,
        "NEXT_DOWN": 0,
        "NEXT_SINK": 4070019470,
        "MAIN_BAS": 4070019470,
        "DIST_SINK": 0.0,
        "DIST_MAIN": 0.0,
        "SUB_AREA": 2265.7,
        "UP_AREA": 2266.1,
        "PFAF_ID": 4440372,
        "ENDO": 0,
        "COAST": 0,
        "ORDER": 1,
        "SORT": 3646,
        "name": "U-Tapao Basin",
        "name_th": "ลุ่มน้ำคลองอู่ตะเภา",
        "source": "HydroSHEDS HydroBASINS v1c, Level 7 (hybas_as_lev07_v1c)",
        "source_url": "https://www.hydrosheds.org/products/hydrobasins",
        "license": "HydroSHEDS License v1.0 – free for non-commercial research and education. See https://www.hydrosheds.org/page/license",
        "retrieved_date": "2026-06-10",
        "hybas_id": 4070019470,
        "pfaf_id": 4440372,
        "sub_area_km2": 2265.7,
        "crs": "EPSG:4326"
      },
      "geometry": {
        "type": "Polygon",
        "coordinates": [
          [
            [
              100.30833333333335,
              7.0375
            ],
            [
              100.33159111870663,
              7.037853325737871
            ],
            [
              100.33924221462676,
              7.04548000759551
            ],
            [
              100.34583333333336,
              7.045833333333357
            ],
            [
              100.34829016791453,
              7.045475260416691
            ],
            [
              100.35381334092884,
              7.039924452039954
            ],
            [
              100.35452440049916,
              7.035045030381967
            ],
            [
              100.36495073106556,
              7.024646674262176
            ],
            [
              100.37742445203996,
              7.025353325737871
            ],
            [
              100.38090888129342,
              7.028813340928843
            ],
            [
              100.39409111870663,
              7.029519992404538
            ],
            [
              100.39791666666669,
              7.033318752712697
            ],
            [
              100.40208333333337,
              7.02918124728735
            ],
            [
              100.40590888129343,
              7.03298000759551
            ],
            [
              100.41075778537329,
              7.033686659071204
            ],
            [
              100.41424221462677,
              7.037146674262177
            ],
            [
              100.41666666666669,
              7.0375
            ],
            [
              100.41701999240453,
              7.039924452039954
            ],
            [
              100.42254316541886,
              7.045475260416691
            ],
            [
              100.42742445203996,
              7.046186659071204
            ],
            [
              100.43090888129343,
              7.049646674262176
            ],
            [
              100.43575778537328,
              7.050353325737871
            ],
            [
              100.4454755995009,
              7.060045030381968
            ],
            [
              100.4461866590712,
              7.064924452039954
            ],
            [
              100.44964667426218,
              7.068408881293426
            ],
            [
              100.45035332573788,
              7.072546386718773
            ],
            [
              100.4461866590712,
              7.07674221462676
            ],
            [
              100.44583333333335,
              7.083333333333357
            ],
            [
              100.44340888129342,
              7.083686659071205
            ],
            [
              100.43785451253258,
              7.089213392469642
            ],
            [
              100.43714667426218,
              7.106591118706621
            ],
            [
              100.43334791395402,
              7.110416666666691
            ],
            [
              100.43714667426218,
              7.11424221462676
            ],
            [
              100.43785332573788,
              7.118382432725719
            ],
            [
              100.42951999240454,
              7.126742214626761
            ],
            [
              100.42916666666669,
              7.129166666666691
            ],
            [
              100.43575778537328,
              7.129519992404538
            ],
            [
              100.44340888129342,
              7.137146674262177
            ],
            [
              100.45833333333336,
              7.1375
            ],
            [
              100.45833333333336,
              7.145833333333358
            ],
            [
              100.4625,
              7.145833333333358
            ],
            [
              100.4633509318034,
              7.142517428927976
            ],
            [
              100.47043745252824,
              7.140698920355927
            ],
            [
              100.4744327121311,
              7.135543823242212
            ],
            [
              100.47556728786896,
              7.131122843424503
            ],
            [
              100.48276604546443,
              7.123043823242211
            ],
            [
              100.48333333333336,
              7.1125
            ],
            [
              100.48657362196184,
              7.11157362196183
            ],
            [
              100.48886786566842,
              7.103549194335962
            ],
            [
              100.49799346923831,
              7.10478413899742
            ],
            [
              100.50369754367406,
              7.108950805664087
            ],
            [
              100.50632680257164,
              7.107715861002628
            ],
            [
              100.51033986409507,
              7.10478413899742
            ],
            [
              100.51986168755428,
              7.103398301866344
            ],
            [
              100.52175971137156,
              7.096759711371552
            ],
            [
              100.52839847140845,
              7.094861518012177
            ],
            [
              100.529973687066,
              7.084038967556447
            ],
            [
              100.5479934692383,
              7.082715861002628
            ],
            [
              100.55369754367408,
              7.078549194335961
            ],
            [
              100.55632680257165,
              7.07978413899742
            ],
            [
              100.5620308770074,
              7.083950805664086
            ],
            [
              100.56466013590497,
              7.082715861002628
            ],
            [
              100.56875,
              7.07972819010419
            ],
            [
              100.57283986409507,
              7.082715861002628
            ],
            [
              100.58966013590498,
              7.083950805664086
            ],
            [
              100.59367319742842,
              7.086882527669294
            ],
            [
              100.5979934692383,
              7.088117472330753
            ],
            [
              100.60200653076174,
              7.091049194335961
            ],
            [
              100.6041666666667,
              7.091666666666691
            ],
            [
              100.60793745252823,
              7.090698920355926
            ],
            [
              100.61193271213111,
              7.085543823242212
            ],
            [
              100.61306728786894,
              7.081122843424503
            ],
            [
              100.62119920518666,
              7.071996392144121
            ],
            [
              100.61666666666669,
              7.070833333333358
            ],
            [
              100.61631334092884,
              7.068408881293426
            ],
            [
              100.61285332573787,
              7.064924452039954
            ],
            [
              100.61214667426218,
              7.055908881293426
            ],
            [
              100.60868665907121,
              7.052424452039954
            ],
            [
              100.60798000759551,
              7.043408881293427
            ],
            [
              100.60451999240453,
              7.039924452039954
            ],
            [
              100.6041666666667,
              7.025
            ],
            [
              100.60473395453562,
              7.022789510091169
            ],
            [
              100.61286587185333,
              7.013663058810787
            ],
            [
              100.60456254747182,
              7.01153225368926
            ],
            [
              100.5994327121311,
              7.004913330078148
            ],
            [
              100.60056728786896,
              6.997789510091168
            ],
            [
              100.60776604546443,
              6.989710489908878
            ],
            [
              100.60890062120228,
              6.981122843424503
            ],
            [
              100.61306728786894,
              6.975746663411481
            ],
            [
              100.61193271213111,
              6.964456176757835
            ],
            [
              100.60776604546443,
              6.959079996744815
            ],
            [
              100.60890062120228,
              6.943622843424502
            ],
            [
              100.61203121609161,
              6.939583333333356
            ],
            [
              100.60880211724178,
              6.93541666666669
            ],
            [
              100.61193271213111,
              6.931377156575543
            ],
            [
              100.61306728786894,
              6.926956176757836
            ],
            [
              100.61609937879777,
              6.92304382324221
            ],
            [
              100.61666666666669,
              6.920833333333356
            ],
            [
              100.61424221462676,
              6.920480007595509
            ],
            [
              100.6107577853733,
              6.917019992404537
            ],
            [
              100.60833333333336,
              6.916666666666689
            ],
            [
              100.60590888129343,
              6.916313340928842
            ],
            [
              100.60035569932728,
              6.91078796386721
            ],
            [
              100.59964667426217,
              6.901742214626759
            ],
            [
              100.59618665907121,
              6.898257785373286
            ],
            [
              100.59548000759551,
              6.889242214626758
            ],
            [
              100.58995378282337,
              6.88368835449221
            ],
            [
              100.58333333333336,
              6.883333333333356
            ],
            [
              100.575,
              6.883333333333356
            ],
            [
              100.5743823581272,
              6.872839694552974
            ],
            [
              100.57138994004994,
              6.868743557400196
            ],
            [
              100.57854902479386,
              6.860493638780405
            ],
            [
              100.58009304470488,
              6.855093044704883
            ],
            [
              100.58738606770837,
              6.853008015950543
            ],
            [
              100.59104902479386,
              6.847993638780403
            ],
            [
              100.59235873752172,
              6.830160183376758
            ],
            [
              100.60007459852433,
              6.827954101562522
            ],
            [
              100.5964509752062,
              6.822993638780404
            ],
            [
              100.59512769911026,
              6.804973687065994
            ],
            [
              100.58533986409508,
              6.803549194335959
            ],
            [
              100.58132680257164,
              6.800617472330751
            ],
            [
              100.56327921549482,
              6.799292331271723
            ],
            [
              100.56221550835507,
              6.790741305881098
            ],
            [
              100.5661051432292,
              6.785416666666688
            ],
            [
              100.56188235812719,
              6.779635959201411
            ],
            [
              100.56365593804256,
              6.775860934787348
            ],
            [
              100.56990695529517,
              6.774073621961827
            ],
            [
              100.57083333333335,
              6.770833333333355
            ],
            [
              100.5704755995009,
              6.768378363715299
            ],
            [
              100.56075778537328,
              6.758686659071202
            ],
            [
              100.55,
              6.758333333333354
            ],
            [
              100.54964667426218,
              6.735075547960091
            ],
            [
              100.54584791395402,
              6.73125
            ],
            [
              100.54964667426218,
              6.727424452039951
            ],
            [
              100.55035569932728,
              6.7183787027995
            ],
            [
              100.55590888129343,
              6.712853325737868
            ],
            [
              100.55833333333337,
              6.7125
            ],
            [
              100.55776604546443,
              6.710289510091167
            ],
            [
              100.55359937879777,
              6.704913330078146
            ],
            [
              100.55473395453562,
              6.701956176757833
            ],
            [
              100.5619327121311,
              6.693877156575541
            ],
            [
              100.56313764784073,
              6.67590569390193
            ],
            [
              100.57017211914065,
              6.674100409613736
            ],
            [
              100.57083333333335,
              6.666666666666687
            ],
            [
              100.56751759847008,
              6.665815904405402
            ],
            [
              100.56666666666669,
              6.6625
            ],
            [
              100.56631334092884,
              6.660075547960091
            ],
            [
              100.56214667426218,
              6.655879720052104
            ],
            [
              100.56285332573788,
              6.651742214626756
            ],
            [
              100.56631334092884,
              6.648257785373284
            ],
            [
              100.56701999240454,
              6.639242214626757
            ],
            [
              100.5704800075955,
              6.635757785373285
            ],
            [
              100.57083333333335,
              6.629166666666687
            ],
            [
              100.5704800075955,
              6.61007554796009
            ],
            [
              100.56631334092884,
              6.605879720052103
            ],
            [
              100.56701999240454,
              6.580908881293423
            ],
            [
              100.5704800075955,
              6.577424452039951
            ],
            [
              100.57083333333335,
              6.570833333333353
            ],
            [
              100.57325778537329,
              6.570480007595506
            ],
            [
              100.5850755479601,
              6.558686659071201
            ],
            [
              100.58995683458119,
              6.557975260416686
            ],
            [
              100.59548000759551,
              6.552424452039951
            ],
            [
              100.59583333333336,
              6.55
            ],
            [
              100.59668426513674,
              6.546684095594637
            ],
            [
              100.6,
              6.545833333333353
            ],
            [
              100.60035400390628,
              6.530880398220505
            ],
            [
              100.60590888129343,
              6.525353325737867
            ],
            [
              100.60833333333336,
              6.525
            ],
            [
              100.60833333333336,
              6.483333333333352
            ],
            [
              100.60833333333336,
              6.470833333333353
            ],
            [
              100.6041666666667,
              6.470833333333353
            ],
            [
              100.6,
              6.470833333333353
            ],
            [
              100.5993823581272,
              6.472993638780401
            ],
            [
              100.5955022176107,
              6.478305053710956
            ],
            [
              100.58533986409508,
              6.479784138997415
            ],
            [
              100.58132680257164,
              6.482715861002623
            ],
            [
              100.57700653076175,
              6.483950805664081
            ],
            [
              100.56882680257164,
              6.491049194335957
            ],
            [
              100.54536421034074,
              6.492284138997415
            ],
            [
              100.53966013590498,
              6.488117472330748
            ],
            [
              100.52843000623918,
              6.48688252766929
            ],
            [
              100.51882680257164,
              6.495215861002624
            ],
            [
              100.51450653076175,
              6.496450805664082
            ],
            [
              100.49248046875003,
              6.517324829101582
            ],
            [
              100.49086625840931,
              6.528416273329013
            ],
            [
              100.47843000623918,
              6.529784138997416
            ],
            [
              100.46882680257164,
              6.521450805664082
            ],
            [
              100.4666666666667,
              6.520833333333353
            ],
            [
              100.46445617675784,
              6.521400621202277
            ],
            [
              100.45930107964412,
              6.525396050347242
            ],
            [
              100.45748240152997,
              6.532482571072068
            ],
            [
              100.4541666666667,
              6.533333333333353
            ],
            [
              100.45,
              6.533333333333353
            ],
            [
              100.44914906819665,
              6.530017428927971
            ],
            [
              100.4436228434245,
              6.528599378797763
            ],
            [
              100.43971048990888,
              6.525567287868943
            ],
            [
              100.42695617675784,
              6.524432712131096
            ],
            [
              100.4229166666667,
              6.521301947699673
            ],
            [
              100.41887715657555,
              6.524432712131096
            ],
            [
              100.41028951009118,
              6.525567287868943
            ],
            [
              100.40637715657554,
              6.528599378797763
            ],
            [
              100.4041666666667,
              6.529166666666686
            ],
            [
              100.40363718668623,
              6.539748128255228
            ],
            [
              100.40052947998049,
              6.543585205078145
            ],
            [
              100.39934997558596,
              6.553233846028665
            ],
            [
              100.39475029839413,
              6.554696316189256
            ],
            [
              100.38558163113066,
              6.546362982855922
            ],
            [
              100.37389984130861,
              6.545303683810784
            ],
            [
              100.36313357883031,
              6.55523444281686
            ],
            [
              100.36197052001955,
              6.564748128255228
            ],
            [
              100.35886281331382,
              6.568585205078145
            ],
            [
              100.35833333333336,
              6.570833333333353
            ],
            [
              100.35772501627606,
              6.578201972113735
            ],
            [
              100.35322587754993,
              6.579696316189256
            ],
            [
              100.34808163113067,
              6.57552964952259
            ],
            [
              100.34583333333336,
              6.575
            ],
            [
              100.34548000759551,
              6.581591118706617
            ],
            [
              100.33995683458119,
              6.587141927083353
            ],
            [
              100.33507554796009,
              6.587853325737868
            ],
            [
              100.32952236599395,
              6.593378702799499
            ],
            [
              100.32881334092885,
              6.60242445203995
            ],
            [
              100.3211866590712,
              6.61007554796009
            ],
            [
              100.32083333333335,
              6.6125
            ],
            [
              100.32325778537329,
              6.612853325737867
            ],
            [
              100.32880774603952,
              6.618375311957486
            ],
            [
              100.32951999240454,
              6.622546386718771
            ],
            [
              100.32535332573786,
              6.626742214626756
            ],
            [
              100.32464667426218,
              6.635049099392381
            ],
            [
              100.33298000759551,
              6.643408881293423
            ],
            [
              100.3336866590712,
              6.652424452039951
            ],
            [
              100.34131334092885,
              6.660075547960091
            ],
            [
              100.3416666666667,
              6.6625
            ],
            [
              100.32695617675783,
              6.663067287868945
            ],
            [
              100.32304382324222,
              6.666099378797764
            ],
            [
              100.3186228434245,
              6.667233954535611
            ],
            [
              100.31471048990888,
              6.67026604546443
            ],
            [
              100.3061228434245,
              6.671400621202277
            ],
            [
              100.29675309922962,
              6.679749552408875
            ],
            [
              100.29526604546443,
              6.685543823242208
            ],
            [
              100.29223395453562,
              6.689456176757833
            ],
            [
              100.29109937879777,
              6.692413330078146
            ],
            [
              100.29526604546443,
              6.697789510091167
            ],
            [
              100.29640062120228,
              6.700850084092902
            ],
            [
              100.29017096625437,
              6.708320109049501
            ],
            [
              100.28554382324221,
              6.704733954535611
            ],
            [
              100.27425333658857,
              6.703599378797763
            ],
            [
              100.26887715657554,
              6.707766045464431
            ],
            [
              100.25121493869361,
              6.708900621202278
            ],
            [
              100.24910040961375,
              6.70066121419273
            ],
            [
              100.23528951009116,
              6.699432712131097
            ],
            [
              100.23137715657555,
              6.696400621202278
            ],
            [
              100.22397477891712,
              6.695266045464431
            ],
            [
              100.20221048990888,
              6.716099378797765
            ],
            [
              100.2,
              6.716666666666688
            ],
            [
              100.2,
              6.720833333333355
            ],
            [
              100.2,
              6.725
            ],
            [
              100.19583333333335,
              6.725
            ],
            [
              100.19166666666669,
              6.725
            ],
            [
              100.19166666666669,
              6.729166666666687
            ],
            [
              100.19223395453561,
              6.764710489908875
            ],
            [
              100.19640062120229,
              6.770086669921897
            ],
            [
              100.19526604546444,
              6.785543823242209
            ],
            [
              100.19213545057511,
              6.789583333333355
            ],
            [
              100.19526604546444,
              6.793622843424501
            ],
            [
              100.19644080268014,
              6.82408650716148
            ],
            [
              100.2,
              6.825
            ],
            [
              100.20035485161678,
              6.831620279947939
            ],
            [
              100.20590888129342,
              6.837146674262175
            ],
            [
              100.20833333333336,
              6.8375
            ],
            [
              100.2086866590712,
              6.848257785373286
            ],
            [
              100.21214667426217,
              6.851742214626759
            ],
            [
              100.21285332573787,
              6.864924452039952
            ],
            [
              100.21631334092885,
              6.868408881293425
            ],
            [
              100.21701999240454,
              6.87671576605905
            ],
            [
              100.2086866590712,
              6.885075547960092
            ],
            [
              100.20798000759551,
              6.894091118706619
            ],
            [
              100.20245683458118,
              6.899641927083356
            ],
            [
              100.2,
              6.9
            ],
            [
              100.2,
              6.908333333333356
            ],
            [
              100.20052947998049,
              6.910581461588564
            ],
            [
              100.20464867485896,
              6.915667385525197
            ],
            [
              100.20328030056426,
              6.920060899522593
            ],
            [
              100.2,
              6.920833333333356
            ],
            [
              100.2,
              6.925
            ],
            [
              100.19964667426217,
              6.927424452039953
            ],
            [
              100.1961866590712,
              6.930908881293425
            ],
            [
              100.19583333333335,
              6.9375
            ],
            [
              100.19521569146053,
              6.943826972113738
            ],
            [
              100.19228430853951,
              6.947839694552974
            ],
            [
              100.19104902479386,
              6.950469292534745
            ],
            [
              100.19521569146053,
              6.956173027886308
            ],
            [
              100.19650963677303,
              6.982522243923635
            ],
            [
              100.20763905843101,
              6.984142049153669
            ],
            [
              100.20895097520619,
              7.004635959201412
            ],
            [
              100.20478430853952,
              7.010339694552975
            ],
            [
              100.2041666666667,
              7.020833333333357
            ],
            [
              100.2105438232422,
              7.020266045464433
            ],
            [
              100.21989610460072,
              7.0119327121311
            ],
            [
              100.23554382324221,
              7.013067287868947
            ],
            [
              100.23945617675784,
              7.016099378797767
            ],
            [
              100.24387715657555,
              7.017233954535614
            ],
            [
              100.24778951009117,
              7.020266045464433
            ],
            [
              100.25221048990888,
              7.021400621202281
            ],
            [
              100.2561228434245,
              7.0244327121311
            ],
            [
              100.27409430609812,
              7.025637817382836
            ],
            [
              100.2758509318034,
              7.032482571072072
            ],
            [
              100.28137715657554,
              7.03390062120228
            ],
            [
              100.28528951009118,
              7.0369327121311
            ],
            [
              100.2875,
              7.0375
            ],
            [
              100.28992445203995,
              7.037853325737871
            ],
            [
              100.29412044949004,
              7.042019992404537
            ],
            [
              100.30242445203996,
              7.041313340928843
            ],
            [
              100.30590888129343,
              7.037853325737871
            ],
            [
              100.30833333333335,
              7.0375
            ]
          ]
        ]
      }
    }
  ],
  "description": "Hydrologic basin boundary for the U-Tapao catchment (Hat Yai / Songkhla Lake). Source: HydroSHEDS HydroBASINS Level 7."
}